stop_depart_parent_id,stop_arrivee_parent_id,stop_depart_name,stop_arrivee_name,lat_depart_parent,lon_depart_parent,lat_arrivee_parent,lon_arrivee_parent,geometry,troncon_unique_id
S5512,S5485,La Martelle,Grèzes,43.607352615,3.826643465,43.60970196,3.827725415,"LINESTRING (3.826643465 43.607352615, 3.827725415 43.60970196)",TU000000
S5485,S5435,Grèzes,Croix des Rosiers,43.60970196,3.827725415,43.61077117,3.83069788,"LINESTRING (3.827725415 43.60970196, 3.83069788 43.61077117)",TU000001
S5435,S5923,Croix des Rosiers,Mourèze,43.61077117,3.83069788,43.60736086,3.83223552,"LINESTRING (3.83069788 43.61077117, 3.83223552 43.60736086)",TU000002
S5923,S5920,Mourèze,Alexandre Yersin,43.60736086,3.83223552,43.60396102,3.832690825,"LINESTRING (3.83223552 43.60736086, 3.832690825 43.60396102)",TU000003
S5920,S5658,Alexandre Yersin,Sophie Germain,43.60396102,3.832690825,43.60505589,3.83542253,"LINESTRING (3.832690825 43.60396102, 3.83542253 43.60505589)",TU000004
S5658,S5550,Sophie Germain,Martellière,43.60505589,3.83542253,43.606950095,3.837878445,"LINESTRING (3.83542253 43.60505589, 3.837878445 43.606950095)",TU000005
S5550,S5540,Martellière,Lycée Jules Ferry,43.606950095,3.837878445,43.608687295,3.840955145,"LINESTRING (3.837878445 43.606950095, 3.840955145 43.608687295)",TU000006
S5540,S5463,Lycée Jules Ferry,François Dezeuze,43.608687295,3.840955145,43.60863318,3.84613126,"LINESTRING (3.840955145 43.608687295, 3.84613126 43.60863318)",TU000007
S5463,S5457,François Dezeuze,Figairasse,43.60863318,3.84613126,43.607120475,3.850489305,"LINESTRING (3.84613126 43.60863318, 3.850489305 43.607120475)",TU000008
S5457,S5449,Figairasse,Étoile,43.607120475,3.850489305,43.60516753,3.854816865,"LINESTRING (3.850489305 43.607120475, 3.854816865 43.60516753)",TU000009
S5449,S5554,Étoile,Mas de Merle,43.60516753,3.854816865,43.604401695,3.85749953,"LINESTRING (3.854816865 43.60516753, 3.85749953 43.604401695)",TU000010
S5554,S5483,Mas de Merle,Cité Créative,43.604401695,3.85749953,43.60305623,3.86271499,"LINESTRING (3.85749953 43.604401695, 3.86271499 43.60305623)",TU000011
S5483,S5436,Cité Créative,Croix du Capitaine,43.60305623,3.86271499,43.60204833,3.86660945,"LINESTRING (3.86271499 43.60305623, 3.86660945 43.60204833)",TU000012
S5436,S5391,Croix du Capitaine,Berthelot,43.60204833,3.86660945,43.60124442,3.86942068,"LINESTRING (3.86660945 43.60204833, 3.86942068 43.60124442)",TU000013
S5391,S5922,Berthelot,Ernest Michel,43.60124442,3.86942068,43.59958804,3.87338406,"LINESTRING (3.86942068 43.60124442, 3.87338406 43.59958804)",TU000014
S5922,S5629,Ernest Michel,Rondelet,43.59958804,3.87338406,43.6033504316667,3.875474865,"LINESTRING (3.87338406 43.59958804, 3.875474865 43.6033504316667)",TU000015
S5629,S5827,Rondelet,Gare Saint-Roch (Pont de Sète),43.6033504316667,3.875474865,43.6040141375,3.878528735,"LINESTRING (3.875474865 43.6033504316667, 3.878528735 43.6040141375)",TU000016
S5827,S5465,Gare Saint-Roch (Pont de Sète),Frédéric Bazille,43.6040141375,3.878528735,43.60271354,3.88053167,"LINESTRING (3.878528735 43.6040141375, 3.88053167 43.60271354)",TU000017
S5465,S5416,Frédéric Bazille,Cité Mion,43.60271354,3.88053167,43.600936575,3.884726605,"LINESTRING (3.88053167 43.60271354, 3.884726605 43.600936575)",TU000018
S5416,S5500,Cité Mion,Iris,43.600936575,3.884726605,43.59875025,3.885483755,"LINESTRING (3.884726605 43.600936575, 3.885483755 43.59875025)",TU000019
S5500,S5466,Iris,Frédéric Fabrège,43.59875025,3.885483755,43.597363925,3.88655942,"LINESTRING (3.885483755 43.59875025, 3.88655942 43.597363925)",TU000020
S5466,S5536,Frédéric Fabrège,Lucullus,43.597363925,3.88655942,43.594773645,3.888530005,"LINESTRING (3.88655942 43.597363925, 3.888530005 43.594773645)",TU000021
S5536,S5414,Lucullus,Cité de l'Arme,43.594773645,3.888530005,43.593462115,3.88940347,"LINESTRING (3.888530005 43.594773645, 3.88940347 43.593462115)",TU000022
S5414,S5470,Cité de l'Arme,Garcia Lorca,43.593462115,3.88940347,43.59120512625,3.89046299125,"LINESTRING (3.88940347 43.593462115, 3.89046299125 43.59120512625)",TU000023
S5470,S5551,Garcia Lorca,Mas Argelliers,43.59120512625,3.89046299125,43.58666355,3.889262025,"LINESTRING (3.89046299125 43.59120512625, 3.889262025 43.58666355)",TU000024
S5551,S5655,Mas Argelliers,Saporta,43.58666355,3.889262025,43.584111735,3.887925135,"LINESTRING (3.889262025 43.58666355, 3.887925135 43.584111735)",TU000025
S5655,S5556,Saporta,Mas Saint-Pierre,43.584111735,3.887925135,43.58211885,3.87987639,"LINESTRING (3.887925135 43.584111735, 3.87987639 43.58211885)",TU000026
S5556,S5663,Mas Saint-Pierre,Tournezy,43.58211885,3.87987639,43.57912723,3.87785425,"LINESTRING (3.87987639 43.58211885, 3.87785425 43.57912723)",TU000027
S5416,S5604,Cité Mion,Place Carnot,43.600936575,3.884726605,43.6036317566667,3.88400791,"LINESTRING (3.884726605 43.600936575, 3.88400791 43.6036317566667)",TU000028
S5604,S5494,Place Carnot,Henri René,43.6036317566667,3.88400791,43.60310677,3.88195254,"LINESTRING (3.88400791 43.6036317566667, 3.88195254 43.60310677)",TU000029
S5494,S5827,Henri René,Gare Saint-Roch (Pont de Sète),43.60310677,3.88195254,43.6040141375,3.878528735,"LINESTRING (3.88195254 43.60310677, 3.878528735 43.6040141375)",TU000030
S5391,S5609,Berthelot,Place du 8 Mai,43.60124442,3.86942068,43.599775995,3.86678363,"LINESTRING (3.86942068 43.60124442, 3.86678363 43.599775995)",TU000031
S5609,S5487,Place du 8 Mai,Guillaume Janvier,43.599775995,3.86678363,43.598040665,3.864900295,"LINESTRING (3.86678363 43.599775995, 3.864900295 43.598040665)",TU000032
S5487,S5965,Guillaume Janvier,Parc Montcalm,43.598040665,3.864900295,43.59999468,3.85988711,"LINESTRING (3.864900295 43.598040665, 3.85988711 43.59999468)",TU000033
S5965,S5966,Parc Montcalm,Chamberte - Les Roses,43.59999468,3.85988711,43.60330554,3.85649926,"LINESTRING (3.85988711 43.59999468, 3.85649926 43.60330554)",TU000034
S5966,S5554,Chamberte - Les Roses,Mas de Merle,43.60330554,3.85649926,43.604401695,3.85749953,"LINESTRING (3.85649926 43.60330554, 3.85749953 43.604401695)",TU000035
S5923,S5488,Mourèze,Gustave Eiffel,43.60736086,3.83223552,43.60926412,3.83274311,"LINESTRING (3.83223552 43.60736086, 3.83274311 43.60926412)",TU000036
S5488,S5435,Gustave Eiffel,Croix des Rosiers,43.60926412,3.83274311,43.61077117,3.83069788,"LINESTRING (3.83274311 43.60926412, 3.83069788 43.61077117)",TU000037
S5401,S5622,Celleneuve,Renaudel,43.615757055,3.82588522,43.61462255,3.82813844,"LINESTRING (3.82588522 43.615757055, 3.82813844 43.61462255)",TU000038
S5622,S5548,Renaudel,Marie Curie,43.61462255,3.82813844,43.61480082,3.83118066,"LINESTRING (3.82813844 43.61462255, 3.83118066 43.61480082)",TU000039
S5548,S5589,Marie Curie,Petit Bard,43.61480082,3.83118066,43.614609405,3.835271085,"LINESTRING (3.83118066 43.61480082, 3.835271085 43.614609405)",TU000040
S5589,S5662,Petit Bard,Tonnelles,43.614609405,3.835271085,43.6136009216667,3.83884714833333,"LINESTRING (3.835271085 43.614609405, 3.83884714833333 43.6136009216667)",TU000041
S5662,S5389,Tonnelles,Belvédère,43.6136009216667,3.83884714833333,43.617129325,3.842513825,"LINESTRING (3.83884714833333 43.6136009216667, 3.842513825 43.617129325)",TU000042
S5389,S5634,Belvédère,Saint-Clément,43.617129325,3.842513825,43.617731755,3.84444143,"LINESTRING (3.842513825 43.617129325, 3.84444143 43.617731755)",TU000043
S5634,S5517,Saint-Clément,Las Cazes,43.617731755,3.84444143,43.61632218,3.84689126,"LINESTRING (3.84444143 43.617731755, 3.84689126 43.61632218)",TU000044
S5517,S5446,Las Cazes,Espérance,43.61632218,3.84689126,43.614251535,3.84968228,"LINESTRING (3.84689126 43.61632218, 3.84968228 43.614251535)",TU000045
S5446,S5638,Espérance,Saint-Gabriel,43.614251535,3.84968228,43.61456306,3.852152755,"LINESTRING (3.84968228 43.614251535, 3.852152755 43.61456306)",TU000046
S5638,S5519,Saint-Gabriel,Las Sorbes,43.61456306,3.852152755,43.615220485,3.85495415,"LINESTRING (3.852152755 43.61456306, 3.85495415 43.615220485)",TU000047
S5519,S5444,Las Sorbes,Érables,43.615220485,3.85495415,43.614953865,3.856976245,"LINESTRING (3.85495415 43.615220485, 3.856976245 43.614953865)",TU000048
S5444,S5535,Érables,Louvain,43.614953865,3.856976245,43.61339519,3.8588216,"LINESTRING (3.856976245 43.614953865, 3.8588216 43.61339519)",TU000049
S5535,S5384,Louvain,Avenue de l'Agriculture,43.61339519,3.8588216,43.612139885,3.8611451,"LINESTRING (3.8588216 43.61339519, 3.8611451 43.612139885)",TU000050
S5384,S5481,Avenue de l'Agriculture,Glycines,43.612139885,3.8611451,43.6119354,3.86353371,"LINESTRING (3.8611451 43.612139885, 3.86353371 43.6119354)",TU000051
S5481,S5576,Glycines,Paladilhe,43.6119354,3.86353371,43.61219869,3.86685039,"LINESTRING (3.86353371 43.6119354, 3.86685039 43.61219869)",TU000052
S5576,S5440,Paladilhe,Doria,43.61219869,3.86685039,43.61261756,3.86784935666667,"LINESTRING (3.86685039 43.61219869, 3.86784935666667 43.61261756)",TU000053
S5440,S5648,Doria,Saint-Roch,43.61261756,3.86784935666667,43.6152104,3.86969648,"LINESTRING (3.86784935666667 43.61261756, 3.86969648 43.6152104)",TU000054
S5648,S5513,Saint-Roch,La Pile,43.6152104,3.86969648,43.61731833,3.86811974,"LINESTRING (3.86969648 43.6152104, 3.86811974 43.61731833)",TU000055
S5513,S5495,La Pile,Hippolyte Rech,43.61731833,3.86811974,43.61958296,3.865631395,"LINESTRING (3.86811974 43.61731833, 3.865631395 43.61958296)",TU000056
S5495,S5593,Hippolyte Rech,Pierre d'Adhémar,43.61958296,3.865631395,43.622150195,3.86399242,"LINESTRING (3.865631395 43.61958296, 3.86399242 43.622150195)",TU000057
S5593,S5456,Pierre d'Adhémar,Fac de Pharmacie,43.622150195,3.86399242,43.624126705,3.86248603,"LINESTRING (3.86399242 43.622150195, 3.86248603 43.624126705)",TU000058
S5456,S5637,Fac de Pharmacie,Saint-Éloi,43.624126705,3.86248603,43.626668085,3.8660221925,"LINESTRING (3.86248603 43.624126705, 3.8660221925 43.626668085)",TU000059
S5637,S5492,Saint-Éloi,Henri Dunant,43.626668085,3.8660221925,43.626838505,3.869068085,"LINESTRING (3.8660221925 43.626668085, 3.869068085 43.626838505)",TU000060
S5492,S5651,Henri Dunant,Sainte-Odile,43.626838505,3.869068085,43.622700135,3.873090225,"LINESTRING (3.869068085 43.626838505, 3.873090225 43.622700135)",TU000061
S5651,S5547,Sainte-Odile,Marie Caizergues,43.622700135,3.873090225,43.621260205,3.87541501,"LINESTRING (3.873090225 43.622700135, 3.87541501 43.621260205)",TU000062
S5547,S5568,Marie Caizergues,Nazareth,43.621260205,3.87541501,43.621680905,3.880277185,"LINESTRING (3.87541501 43.621260205, 3.880277185 43.621680905)",TU000063
S5568,S5596,Nazareth,Pierre Rouge,43.621680905,3.880277185,43.62299662,3.882571165,"LINESTRING (3.880277185 43.621680905, 3.882571165 43.62299662)",TU000064
S5596,S5368,Pierre Rouge,Aiguelongue,43.62299662,3.882571165,43.6264142775,3.8826203625,"LINESTRING (3.882571165 43.62299662, 3.8826203625 43.6264142775)",TU000065
S5368,S5420,Aiguelongue,Clolus,43.6264142775,3.8826203625,43.628602545,3.881256355,"LINESTRING (3.8826203625 43.6264142775, 3.881256355 43.628602545)",TU000066
S5420,S5373,Clolus,Alpilles,43.628602545,3.881256355,43.629986475,3.8794002,"LINESTRING (3.881256355 43.628602545, 3.8794002 43.629986475)",TU000067
S5373,S5406,Alpilles,Chantecler,43.629986475,3.8794002,43.632372095,3.878220775,"LINESTRING (3.8794002 43.629986475, 3.878220775 43.632372095)",TU000068
S5406,S5601,Chantecler,Pioch de Boutonnet,43.632372095,3.878220775,43.63389396,3.87740783,"LINESTRING (3.878220775 43.632372095, 3.87740783 43.63389396)",TU000069
S5601,S5565,Pioch de Boutonnet,Moulin de Gasconnet,43.63389396,3.87740783,43.63388536,3.87453608,"LINESTRING (3.87740783 43.63389396, 3.87453608 43.63388536)",TU000070
S5565,S5623,Moulin de Gasconnet,René Bougnol,43.63388536,3.87453608,43.63647685,3.87404888,"LINESTRING (3.87453608 43.63388536, 3.87404888 43.63647685)",TU000071
S5623,S5379,René Bougnol,Antoine-Laurent de Jussieu,43.63647685,3.87404888,43.63730763,3.88010551,"LINESTRING (3.87404888 43.63647685, 3.88010551 43.63730763)",TU000072
S5379,S5369,Antoine-Laurent de Jussieu,Aiguelongue (Jussieu),43.63730763,3.88010551,43.638474885,3.88303977,"LINESTRING (3.88010551 43.63730763, 3.88303977 43.638474885)",TU000073
S5637,S5593,Saint-Éloi,Pierre d'Adhémar,43.626668085,3.8660221925,43.622150195,3.86399242,"LINESTRING (3.8660221925 43.626668085, 3.86399242 43.622150195)",TU000074
S5495,S5942,Hippolyte Rech,Portalière des Masques,43.61958296,3.865631395,43.61725226,3.86643516,"LINESTRING (3.865631395 43.61958296, 3.86643516 43.61725226)",TU000075
S5942,S5576,Portalière des Masques,Paladilhe,43.61725226,3.86643516,43.61219869,3.86685039,"LINESTRING (3.86643516 43.61725226, 3.86685039 43.61219869)",TU000076
S5498,S5539,Hôtel du Département,Lycée Jean Monnet,43.62187434,3.83501314,43.624228285,3.834948055,"LINESTRING (3.83501314 43.62187434, 3.834948055 43.624228285)",TU000077
S5539,S5504,Lycée Jean Monnet,Jean Bart,43.624228285,3.834948055,43.62558389,3.83767525,"LINESTRING (3.834948055 43.624228285, 3.83767525 43.62558389)",TU000078
S5504,S5409,Jean Bart,Château d'Ô,43.62558389,3.83767525,43.631475258,3.842887188,"LINESTRING (3.83767525 43.62558389, 3.842887188 43.631475258)",TU000079
S5409,S5612,Château d'Ô,Pléiade,43.631475258,3.842887188,43.62848701,3.84579593,"LINESTRING (3.842887188 43.631475258, 3.84579593 43.62848701)",TU000080
S5612,S5460,Pléiade,Font Trouvé,43.62848701,3.84579593,43.626943105,3.84788374,"LINESTRING (3.84579593 43.62848701, 3.84788374 43.626943105)",TU000081
S5460,S5471,Font Trouvé,Gardioles,43.626943105,3.84788374,43.62489357,3.851412125,"LINESTRING (3.84788374 43.626943105, 3.851412125 43.62489357)",TU000082
S5471,S5403,Gardioles,Cervantès,43.62489357,3.851412125,43.62259024,3.854760265,"LINESTRING (3.851412125 43.62489357, 3.854760265 43.62259024)",TU000083
S5403,S5515,Cervantès,La Source,43.62259024,3.854760265,43.62136678,3.856423045,"LINESTRING (3.854760265 43.62259024, 3.856423045 43.62136678)",TU000084
S5515,S5417,La Source,Cité Roger,43.62136678,3.856423045,43.62043117,3.858390405,"LINESTRING (3.856423045 43.62136678, 3.858390405 43.62043117)",TU000085
S5417,S5616,Cité Roger,Pous de la Sers,43.62043117,3.858390405,43.619204985,3.861519295,"LINESTRING (3.858390405 43.62043117, 3.861519295 43.619204985)",TU000086
S5616,S5542,Pous de la Sers,Maison des Sports,43.619204985,3.861519295,43.61838562,3.86447951,"LINESTRING (3.861519295 43.619204985, 3.86447951 43.61838562)",TU000087
S5542,S5942,Maison des Sports,Portalière des Masques,43.61838562,3.86447951,43.61725226,3.86643516,"LINESTRING (3.86447951 43.61838562, 3.86643516 43.61725226)",TU000088
S5942,S5440,Portalière des Masques,Doria,43.61725226,3.86643516,43.61261756,3.86784935666667,"LINESTRING (3.86643516 43.61725226, 3.86784935666667 43.61261756)",TU000089
S5513,S5542,La Pile,Maison des Sports,43.61731833,3.86811974,43.61838562,3.86447951,"LINESTRING (3.86811974 43.61731833, 3.86447951 43.61838562)",TU000090
S5471,S5566,Gardioles,Mûriers,43.62489357,3.851412125,43.62619707,3.84916342,"LINESTRING (3.851412125 43.62489357, 3.84916342 43.62619707)",TU000091
S5566,S5460,Mûriers,Font Trouvé,43.62619707,3.84916342,43.626943105,3.84788374,"LINESTRING (3.84916342 43.62619707, 3.84788374 43.626943105)",TU000092
S5409,S5539,Château d'Ô,Lycée Jean Monnet,43.631475258,3.842887188,43.624228285,3.834948055,"LINESTRING (3.842887188 43.631475258, 3.834948055 43.624228285)",TU000093
S5524,S5506,Léon Blum,Jean Mermoz,43.6090469666667,3.89024981,43.61254775,3.88935934,"LINESTRING (3.89024981 43.6090469666667, 3.88935934 43.61254775)",TU000094
S5506,S5528,Jean Mermoz,Les Aubes,43.61254775,3.88935934,43.6138008275,3.8886448375,"LINESTRING (3.88935934 43.61254775, 3.8886448375 43.6138008275)",TU000095
S5528,S5445,Les Aubes,Ernest Renan,43.6138008275,3.8886448375,43.61545532,3.88532427,"LINESTRING (3.8886448375 43.6138008275, 3.88532427 43.61545532)",TU000096
S5445,S5599,Ernest Renan,Pinsons,43.61545532,3.88532427,43.617942175,3.88712404,"LINESTRING (3.88532427 43.61545532, 3.88712404 43.617942175)",TU000097
S5599,S5448,Pinsons,Estragon,43.617942175,3.88712404,43.61863273,3.887866655,"LINESTRING (3.88712404 43.617942175, 3.887866655 43.61863273)",TU000098
S5448,S5392,Estragon,Boulevard des Sports,43.61863273,3.887866655,43.61948062,3.88954782,"LINESTRING (3.887866655 43.61863273, 3.88954782 43.61948062)",TU000099
S5392,S5464,Boulevard des Sports,Françoise,43.61948062,3.88954782,43.62000294,3.891362475,"LINESTRING (3.88954782 43.61948062, 3.891362475 43.62000294)",TU000100
S5464,S5644,Françoise,Saint-Maur,43.62000294,3.891362475,43.621039445,3.893989335,"LINESTRING (3.891362475 43.62000294, 3.893989335 43.621039445)",TU000101
S5644,S5578,Saint-Maur,Palombes,43.621039445,3.893989335,43.619632655,3.89398191,"LINESTRING (3.893989335 43.621039445, 3.89398191 43.619632655)",TU000102
S5578,S5461,Palombes,Foyer des Aubes,43.619632655,3.89398191,43.61847983,3.894754785,"LINESTRING (3.89398191 43.619632655, 3.894754785 43.61847983)",TU000103
S5461,S5473,Foyer des Aubes,Garigliano,43.61847983,3.894754785,43.61872124,3.89734135,"LINESTRING (3.894754785 43.61847983, 3.89734135 43.61872124)",TU000104
S5473,S5959,Garigliano,Jules Isaac,43.61872124,3.89734135,43.62214345,3.89816498,"LINESTRING (3.89734135 43.61872124, 3.89816498 43.62214345)",TU000105
S5959,S5584,Jules Isaac,Pastourelles,43.62214345,3.89816498,43.621848395,3.900854595,"LINESTRING (3.89816498 43.62214345, 3.900854595 43.621848395)",TU000106
S5584,S5380,Pastourelles,Apollo,43.621848395,3.900854595,43.62192158,3.90883211,"LINESTRING (3.900854595 43.621848395, 3.90883211 43.62192158)",TU000107
S5380,S5956,Apollo,Becquerel,43.62192158,3.90883211,43.61842025,3.91406892,"LINESTRING (3.90883211 43.62192158, 3.91406892 43.61842025)",TU000108
S5956,S5876,Becquerel,Walhalla,43.61842025,3.91406892,43.618045195,3.91666946,"LINESTRING (3.91406892 43.61842025, 3.91666946 43.618045195)",TU000109
S5876,S5533,Walhalla,Louis Lépine,43.618045195,3.91666946,43.61550055,3.91578242,"LINESTRING (3.91666946 43.618045195, 3.91578242 43.61550055)",TU000110
S5533,S5676,Louis Lépine,Volta Fizeau,43.61550055,3.91578242,43.61391632,3.9134558,"LINESTRING (3.91578242 43.61550055, 3.9134558 43.61391632)",TU000111
S5676,S5486,Volta Fizeau,Guglielmo Marconi,43.61391632,3.9134558,43.611653285,3.912366415,"LINESTRING (3.9134558 43.61391632, 3.912366415 43.611653285)",TU000112
S5486,S5454,Guglielmo Marconi,Évariste Galois,43.611653285,3.912366415,43.60915271,3.912464455,"LINESTRING (3.912366415 43.611653285, 3.912464455 43.60915271)",TU000113
S5454,S5654,Évariste Galois,Samuel Morse,43.60915271,3.912464455,43.6067497,3.913270365,"LINESTRING (3.912464455 43.60915271, 3.913270365 43.6067497)",TU000114
S5654,S5572,Samuel Morse,Odysseum,43.6067497,3.913270365,43.6042340125,3.9199430925,"LINESTRING (3.913270365 43.6067497, 3.9199430925 43.6042340125)",TU000115
S5572,S5605,Odysseum,Place de France,43.6042340125,3.9199430925,43.603759528,3.915564274,"LINESTRING (3.9199430925 43.6042340125, 3.915564274 43.603759528)",TU000116
S5605,S5559,Place de France,Millénaire,43.603759528,3.915564274,43.6031326475,3.910093335,"LINESTRING (3.915564274 43.603759528, 3.910093335 43.6031326475)",TU000117
S5559,S5668,Millénaire,Vauguières,43.6031326475,3.910093335,43.60447763,3.90692939,"LINESTRING (3.910093335 43.6031326475, 3.90692939 43.60447763)",TU000118
S5668,S5580,Vauguières,Parc de la Lironde,43.60447763,3.90692939,43.607950215,3.90675267,"LINESTRING (3.90692939 43.60447763, 3.90675267 43.607950215)",TU000119
S5580,S5871,Parc de la Lironde,Léon Cazal,43.607950215,3.90675267,43.60567607,3.9033252,"LINESTRING (3.90675267 43.607950215, 3.9033252 43.60567607)",TU000120
S5871,S5874,Léon Cazal,Pont Juvénal,43.60567607,3.9033252,43.60621844,3.89814412,"LINESTRING (3.9033252 43.60567607, 3.89814412 43.60621844)",TU000121
S5874,S5606,Pont Juvénal,Place de l'Europe,43.60621844,3.89814412,43.6073732642857,3.89375728142857,"LINESTRING (3.89814412 43.60621844, 3.89375728142857 43.6073732642857)",TU000122
S5606,S5961,Place de l'Europe,Pont Juvénal - Platon,43.6073732642857,3.89375728142857,43.60653515,3.89862289,"LINESTRING (3.89375728142857 43.6073732642857, 3.89862289 43.60653515)",TU000123
S5961,S5871,Pont Juvénal - Platon,Léon Cazal,43.60653515,3.89862289,43.60567607,3.9033252,"LINESTRING (3.89862289 43.60653515, 3.9033252 43.60567607)",TU000124
S5559,S5572,Millénaire,Odysseum,43.6031326475,3.910093335,43.6042340125,3.9199430925,"LINESTRING (3.910093335 43.6031326475, 3.9199430925 43.6042340125)",TU000125
S5605,S5654,Place de France,Samuel Morse,43.603759528,3.915564274,43.6067497,3.913270365,"LINESTRING (3.915564274 43.603759528, 3.913270365 43.6067497)",TU000126
S5676,S5938,Volta Fizeau,Louis Lépine,43.61391632,3.9134558,43.61575306,3.91572754,"LINESTRING (3.9134558 43.61391632, 3.91572754 43.61575306)",TU000127
S5938,S5876,Louis Lépine,Walhalla,43.61575306,3.91572754,43.618045195,3.91666946,"LINESTRING (3.91572754 43.61575306, 3.91666946 43.618045195)",TU000128
S5876,S5937,Walhalla,Becquerel,43.618045195,3.91666946,43.61774289,3.91366662,"LINESTRING (3.91666946 43.618045195, 3.91366662 43.61774289)",TU000129
S5937,S5380,Becquerel,Apollo,43.61774289,3.91366662,43.62192158,3.90883211,"LINESTRING (3.91366662 43.61774289, 3.90883211 43.62192158)",TU000130
S5528,S5524,Les Aubes,Léon Blum,43.6138008275,3.8886448375,43.6090469666667,3.89024981,"LINESTRING (3.8886448375 43.6138008275, 3.89024981 43.6090469666667)",TU000131
S5614,S5874,Port Marianne,Pont Juvénal,43.6020179433333,3.89975705,43.60621844,3.89814412,"LINESTRING (3.89975705 43.6020179433333, 3.89814412 43.60621844)",TU000132
S5606,S5587,Place de l'Europe,Paul Painlevé,43.6073732642857,3.89375728142857,43.610214075,3.899097745,"LINESTRING (3.89375728142857 43.6073732642857, 3.899097745 43.610214075)",TU000133
S5587,S5425,Paul Painlevé,Colverts,43.610214075,3.899097745,43.613751605,3.89815828,"LINESTRING (3.899097745 43.610214075, 3.89815828 43.613751605)",TU000134
S5425,S5641,Colverts,Saint-Jean,43.613751605,3.89815828,43.61556012,3.897737535,"LINESTRING (3.89815828 43.613751605, 3.897737535 43.61556012)",TU000135
S5641,S5549,Saint-Jean,Marie Durand,43.61556012,3.897737535,43.618352245,3.89799327,"LINESTRING (3.897737535 43.61556012, 3.89799327 43.618352245)",TU000136
S5549,S5376,Marie Durand,André Malraux,43.618352245,3.89799327,43.619464315,3.900356205,"LINESTRING (3.89799327 43.618352245, 3.900356205 43.619464315)",TU000137
S5376,S5656,André Malraux,Semard,43.619464315,3.900356205,43.6194078775,3.9037915875,"LINESTRING (3.900356205 43.619464315, 3.9037915875 43.6194078775)",TU000138
S5656,S5595,Semard,Pierre Laroque,43.6194078775,3.9037915875,43.621339895,3.90431174,"LINESTRING (3.9037915875 43.6194078775, 3.90431174 43.621339895)",TU000139
S5595,S5380,Pierre Laroque,Apollo,43.621339895,3.90431174,43.62192158,3.90883211,"LINESTRING (3.90431174 43.621339895, 3.90883211 43.62192158)",TU000140
S5380,S5194,Apollo,Mas de Rochet,43.62192158,3.90883211,43.62563295,3.9061436,"LINESTRING (3.90883211 43.62192158, 3.9061436 43.62563295)",TU000141
S5194,S5198,Mas de Rochet,Pioch Pelat,43.62563295,3.9061436,43.62624249,3.90223108,"LINESTRING (3.9061436 43.62563295, 3.90223108 43.62624249)",TU000142
S5198,S5177,Pioch Pelat,Charles de Gaulle,43.62624249,3.90223108,43.62817536375,3.8974032625,"LINESTRING (3.90223108 43.62624249, 3.8974032625 43.62817536375)",TU000143
S5606,S5960,Place de l'Europe,Pont Juvénal,43.6073732642857,3.89375728142857,43.606236945,3.89810751,"LINESTRING (3.89375728142857 43.6073732642857, 3.89810751 43.606236945)",TU000144
S5960,S5614,Pont Juvénal,Port Marianne,43.606236945,3.89810751,43.6020179433333,3.89975705,"LINESTRING (3.89810751 43.606236945, 3.89975705 43.6020179433333)",TU000145
S5529,S5586,Les Bouisses,Paul Fajon,43.5986651566667,3.83536415333333,43.596375575,3.83711203,"LINESTRING (3.83536415333333 43.5986651566667, 3.83711203 43.596375575)",TU000146
S5586,S5478,Paul Fajon,Georges Danton,43.596375575,3.83711203,43.599587135,3.84309053,"LINESTRING (3.83711203 43.596375575, 3.84309053 43.599587135)",TU000147
S5478,S5582,Georges Danton,Pas du Loup,43.599587135,3.84309053,43.601174545,3.8491566,"LINESTRING (3.84309053 43.599587135, 3.8491566 43.601174545)",TU000148
S5582,S5521,Pas du Loup,Lavandin,43.601174545,3.8491566,43.600085025,3.8534572,"LINESTRING (3.8491566 43.601174545, 3.8534572 43.600085025)",TU000149
S5521,S5678,Lavandin,Winston Churchill,43.600085025,3.8534572,43.599079645,3.8559168,"LINESTRING (3.8534572 43.600085025, 3.8559168 43.599079645)",TU000150
S5678,S5674,Winston Churchill,Vivaldi,43.599079645,3.8559168,43.597050395,3.856066935,"LINESTRING (3.8559168 43.599079645, 3.856066935 43.597050395)",TU000151
S5674,S5618,Vivaldi,Puccini,43.597050395,3.856066935,43.594965465,3.854100525,"LINESTRING (3.856066935 43.597050395, 3.854100525 43.594965465)",TU000152
S5618,S5501,Puccini,Irissou,43.594965465,3.854100525,43.594025085,3.85288817,"LINESTRING (3.854100525 43.594965465, 3.85288817 43.594025085)",TU000153
S5501,S5921,Irissou,Bugarel,43.594025085,3.85288817,43.592388475,3.852925135,"LINESTRING (3.85288817 43.594025085, 3.852925135 43.592388475)",TU000154
S5921,S5522,Bugarel,Le Grand M,43.592388475,3.852925135,43.5909052933333,3.85484196,"LINESTRING (3.852925135 43.592388475, 3.85484196 43.5909052933333)",TU000155
S5522,S5385,Le Grand M,Avenue de Toulouse,43.5909052933333,3.85484196,43.591585885,3.8579067,"LINESTRING (3.85484196 43.5909052933333, 3.8579067 43.591585885)",TU000156
S5385,S5628,Avenue de Toulouse,Ronceray,43.591585885,3.8579067,43.59384411,3.860329205,"LINESTRING (3.8579067 43.591585885, 3.860329205 43.59384411)",TU000157
S5628,S5477,Ronceray,Georges Brassens,43.59384411,3.860329205,43.59578297,3.862446515,"LINESTRING (3.860329205 43.59384411, 3.862446515 43.59578297)",TU000158
S5477,S5487,Georges Brassens,Guillaume Janvier,43.59578297,3.862446515,43.598040665,3.864900295,"LINESTRING (3.862446515 43.59578297, 3.864900295 43.598040665)",TU000159
S5440,S5652,Doria,Sainte-Thérèse,43.61261756,3.86784935666667,43.614197345,3.865369695,"LINESTRING (3.86784935666667 43.61261756, 3.865369695 43.614197345)",TU000160
S5652,S5422,Sainte-Thérèse,Collège Camille Claudel,43.614197345,3.865369695,43.616432805,3.86207633,"LINESTRING (3.865369695 43.614197345, 3.86207633 43.616432805)",TU000161
S5422,S5511,Collège Camille Claudel,La Gaillarde,43.616432805,3.86207633,43.6162808,3.858187035,"LINESTRING (3.86207633 43.616432805, 3.858187035 43.6162808)",TU000162
S5511,S5597,La Gaillarde,Pierre Viala,43.6162808,3.858187035,43.617010685,3.85454391,"LINESTRING (3.858187035 43.6162808, 3.85454391 43.617010685)",TU000163
S5597,S5534,Pierre Viala,Louis Ravaz,43.617010685,3.85454391,43.61987619,3.85181424,"LINESTRING (3.85454391 43.617010685, 3.85181424 43.61987619)",TU000164
S5534,S5518,Louis Ravaz,Las Rébès,43.61987619,3.85181424,43.6207801,3.84921177,"LINESTRING (3.85181424 43.61987619, 3.84921177 43.6207801)",TU000165
S5518,S5404,Las Rébès,Cévennes,43.6207801,3.84921177,43.622066595,3.846245,"LINESTRING (3.84921177 43.6207801, 3.846245 43.622066595)",TU000166
S5404,S5650,Cévennes,Sainte-Geneviève,43.622066595,3.846245,43.623240985,3.84422182,"LINESTRING (3.846245 43.622066595, 3.84422182 43.623240985)",TU000167
S5650,S5371,Sainte-Geneviève,Alco,43.623240985,3.84422182,43.625723385,3.83993123,"LINESTRING (3.84422182 43.623240985, 3.83993123 43.625723385)",TU000168
S5371,S5409,Alco,Château d'Ô,43.625723385,3.83993123,43.631475258,3.842887188,"LINESTRING (3.83993123 43.625723385, 3.842887188 43.631475258)",TU000169
S5409,S5647,Château d'Ô,Saint-Priest,43.631475258,3.842887188,43.634818815,3.843642525,"LINESTRING (3.842887188 43.631475258, 3.843642525 43.634818815)",TU000170
S5647,S5571,Saint-Priest,Occitanie,43.634818815,3.843642525,43.6346144,3.84841683166667,"LINESTRING (3.843642525 43.634818815, 3.84841683166667 43.6346144)",TU000171
S5571,S5374,Occitanie,Ambroise Paré,43.6346144,3.84841683166667,43.63804826,3.84768255,"LINESTRING (3.84841683166667 43.6346144, 3.84768255 43.63804826)",TU000172
S5374,S5632,Ambroise Paré,Route de Ganges,43.63804826,3.84768255,43.642919055,3.845224225,"LINESTRING (3.84768255 43.63804826, 3.845224225 43.642919055)",TU000173
S5632,S5377,Route de Ganges,Antennes,43.642919055,3.845224225,43.644728835,3.84211528,"LINESTRING (3.845224225 43.642919055, 3.84211528 43.644728835)",TU000174
S5377,S5667,Antennes,Val d'Aurelle,43.644728835,3.84211528,43.642756905,3.83618943,"LINESTRING (3.84211528 43.644728835, 3.83618943 43.642756905)",TU000175
S5667,S5381,Val d'Aurelle,Apothicaires,43.642756905,3.83618943,43.641653505,3.835046355,"LINESTRING (3.83618943 43.642756905, 3.835046355 43.641653505)",TU000176
S5381,S5619,Apothicaires,Puech Villa,43.641653505,3.835046355,43.639904465,3.829553955,"LINESTRING (3.835046355 43.641653505, 3.829553955 43.639904465)",TU000177
S5619,S5453,Puech Villa,Euromédecine,43.639904465,3.829553955,43.63905096,3.828146522,"LINESTRING (3.829553955 43.639904465, 3.828146522 43.63905096)",TU000178
S5453,S5382,Euromédecine,Appel du 18 Juin,43.63905096,3.828146522,43.6367686,3.83041886,"LINESTRING (3.828146522 43.63905096, 3.83041886 43.6367686)",TU000179
S5382,S5619,Appel du 18 Juin,Puech Villa,43.6367686,3.83041886,43.639904465,3.829553955,"LINESTRING (3.83041886 43.6367686, 3.829553955 43.639904465)",TU000180
S5632,S5571,Route de Ganges,Occitanie,43.642919055,3.845224225,43.6346144,3.84841683166667,"LINESTRING (3.845224225 43.642919055, 3.84841683166667 43.6346144)",TU000181
S5504,S5371,Jean Bart,Alco,43.62558389,3.83767525,43.625723385,3.83993123,"LINESTRING (3.83767525 43.62558389, 3.83993123 43.625723385)",TU000182
S5652,S5576,Sainte-Thérèse,Paladilhe,43.614197345,3.865369695,43.61219869,3.86685039,"LINESTRING (3.865369695 43.614197345, 3.86685039 43.61219869)",TU000183
S5580,S5516,Parc de la Lironde,Lagoya,43.607950215,3.90675267,43.612159575,3.905983735,"LINESTRING (3.90675267 43.607950215, 3.905983735 43.612159575)",TU000184
S5516,S5600,Lagoya,Pinville,43.612159575,3.905983735,43.61397539,3.905371665,"LINESTRING (3.905983735 43.612159575, 3.905371665 43.61397539)",TU000185
S5600,S5482,Pinville,Goélands,43.61397539,3.905371665,43.61637065,3.903234965,"LINESTRING (3.905371665 43.61397539, 3.903234965 43.61637065)",TU000186
S5482,S5656,Goélands,Semard,43.61637065,3.903234965,43.6194078775,3.9037915875,"LINESTRING (3.903234965 43.61637065, 3.9037915875 43.6194078775)",TU000187
S5595,S5584,Pierre Laroque,Pastourelles,43.621339895,3.90431174,43.621848395,3.900854595,"LINESTRING (3.90431174 43.621339895, 3.900854595 43.621848395)",TU000188
S5959,S5653,Jules Isaac,Salaison,43.62214345,3.89816498,43.62385233,3.89873146,"LINESTRING (3.89816498 43.62214345, 3.89873146 43.62385233)",TU000189
S5653,S5190,Salaison,La Pompignane (Les Lacs),43.62385233,3.89873146,43.62523849,3.900167805,"LINESTRING (3.89873146 43.62385233, 3.900167805 43.62523849)",TU000190
S5190,S5177,La Pompignane (Les Lacs),Charles de Gaulle,43.62523849,3.900167805,43.62817536375,3.8974032625,"LINESTRING (3.900167805 43.62523849, 3.8974032625 43.62817536375)",TU000191
S5177,S5177,Charles de Gaulle,Charles de Gaulle,43.62817536375,3.8974032625,43.62817536375,3.8974032625,"LINESTRING (3.8974032625 43.62817536375, 3.8974032625 43.62817536375)",TU000192
S5177,S5642,Charles de Gaulle,Saint-Lazare,43.62817536375,3.8974032625,43.6269325875,3.88880371,"LINESTRING (3.8974032625 43.62817536375, 3.88880371 43.6269325875)",TU000193
S5642,S5558,Saint-Lazare,Maurice Chevalier,43.6269325875,3.88880371,43.62841497,3.887457885,"LINESTRING (3.88880371 43.6269325875, 3.887457885 43.62841497)",TU000194
S5558,S5630,Maurice Chevalier,Roqueturière,43.62841497,3.887457885,43.630111585,3.885746505,"LINESTRING (3.887457885 43.62841497, 3.885746505 43.630111585)",TU000195
S5630,S5390,Roqueturière,Bengalis,43.630111585,3.885746505,43.628635425,3.883045595,"LINESTRING (3.885746505 43.630111585, 3.883045595 43.628635425)",TU000196
S5390,S5368,Bengalis,Aiguelongue,43.628635425,3.883045595,43.6264142775,3.8826203625,"LINESTRING (3.883045595 43.628635425, 3.8826203625 43.6264142775)",TU000197
S5368,S5664,Aiguelongue,Tourterelles,43.6264142775,3.8826203625,43.625786785,3.878556595,"LINESTRING (3.8826203625 43.6264142775, 3.878556595 43.625786785)",TU000198
S5664,S5649,Tourterelles,Sainte-Catherine,43.625786785,3.878556595,43.626333525,3.876461315,"LINESTRING (3.878556595 43.625786785, 3.876461315 43.626333525)",TU000199
S5649,S5543,Sainte-Catherine,Major Flandre,43.626333525,3.876461315,43.626952605,3.87338408,"LINESTRING (3.876461315 43.626333525, 3.87338408 43.626952605)",TU000200
S5543,S5492,Major Flandre,Henri Dunant,43.626952605,3.87338408,43.626838505,3.869068085,"LINESTRING (3.87338408 43.626952605, 3.869068085 43.626838505)",TU000201
S5456,S5675,Fac de Pharmacie,Voie Domitienne,43.624126705,3.86248603,43.622448355,3.86005905,"LINESTRING (3.86248603 43.624126705, 3.86005905 43.622448355)",TU000202
S5675,S5413,Voie Domitienne,Cinsaults,43.622448355,3.86005905,43.62056808,3.856964825,"LINESTRING (3.86005905 43.622448355, 3.856964825 43.62056808)",TU000203
S5413,S5493,Cinsaults,Henri Marès,43.62056808,3.856964825,43.62014547,3.854088945,"LINESTRING (3.856964825 43.62056808, 3.854088945 43.62014547)",TU000204
S5493,S5534,Henri Marès,Louis Ravaz,43.62014547,3.854088945,43.61987619,3.85181424,"LINESTRING (3.854088945 43.62014547, 3.85181424 43.61987619)",TU000205
S5534,S5626,Louis Ravaz,Rièges,43.61987619,3.85181424,43.61965914,3.849336755,"LINESTRING (3.85181424 43.61987619, 3.849336755 43.61965914)",TU000206
S5626,S5505,Rièges,Jean Calvin,43.61965914,3.849336755,43.618623525,3.845925085,"LINESTRING (3.849336755 43.61965914, 3.845925085 43.618623525)",TU000207
S5505,S5389,Jean Calvin,Belvédère,43.618623525,3.845925085,43.617129325,3.842513825,"LINESTRING (3.845925085 43.618623525, 3.842513825 43.617129325)",TU000208
S5662,S5540,Tonnelles,Lycée Jules Ferry,43.6136009216667,3.83884714833333,43.608687295,3.840955145,"LINESTRING (3.83884714833333 43.6136009216667, 3.840955145 43.608687295)",TU000209
S5658,S5573,Sophie Germain,Ormeaux,43.60505589,3.83542253,43.60252455,3.833531505,"LINESTRING (3.83542253 43.60505589, 3.833531505 43.60252455)",TU000210
S5573,S5529,Ormeaux,Les Bouisses,43.60252455,3.833531505,43.5986651566667,3.83536415333333,"LINESTRING (3.833531505 43.60252455, 3.83536415333333 43.5986651566667)",TU000211
S5586,S5424,Paul Fajon,Collège Marcel Pagnol,43.596375575,3.83711203,43.596258555,3.84649082,"LINESTRING (3.83711203 43.596375575, 3.84649082 43.596258555)",TU000212
S5424,S5921,Collège Marcel Pagnol,Bugarel,43.596258555,3.84649082,43.592388475,3.852925135,"LINESTRING (3.84649082 43.596258555, 3.852925135 43.592388475)",TU000213
S5522,S5552,Le Grand M,Mas de Bagnères,43.5909052933333,3.85484196,43.587421635,3.858377095,"LINESTRING (3.85484196 43.5909052933333, 3.858377095 43.587421635)",TU000214
S5552,S5633,Mas de Bagnères,Sabines,43.587421635,3.858377095,43.583822352,3.860158464,"LINESTRING (3.858377095 43.587421635, 3.860158464 43.583822352)",TU000215
S5559,S5964,Millénaire,Odysseum,43.6031326475,3.910093335,43.60506758,3.91673114,"LINESTRING (3.910093335 43.6031326475, 3.91673114 43.60506758)",TU000216
S5465,S5491,Frédéric Bazille,Hélios,43.60271354,3.88053167,43.60099589,3.88560649,"LINESTRING (3.88053167 43.60271354, 3.88560649 43.60099589)",TU000217
S5491,S5657,Hélios,Soleiado,43.60099589,3.88560649,43.60050774,3.88673748,"LINESTRING (3.88560649 43.60099589, 3.88673748 43.60050774)",TU000218
S5657,S5405,Soleiado,Chambéry,43.60050774,3.88673748,43.59910248,3.889445435,"LINESTRING (3.88673748 43.60050774, 3.889445435 43.59910248)",TU000219
S5405,S5423,Chambéry,Collège des Aiguerelles,43.59910248,3.889445435,43.597575135,3.892199415,"LINESTRING (3.889445435 43.59910248, 3.892199415 43.597575135)",TU000220
S5423,S5507,Collège des Aiguerelles,Jean Mirailhet / Tourmalines,43.597575135,3.892199415,43.595319745,3.891191785,"LINESTRING (3.892199415 43.597575135, 3.891191785 43.595319745)",TU000221
S5507,S5470,Jean Mirailhet / Tourmalines,Garcia Lorca,43.595319745,3.891191785,43.59120512625,3.89046299125,"LINESTRING (3.891191785 43.595319745, 3.89046299125 43.59120512625)",TU000222
S5470,S5546,Garcia Lorca,Maréchal Leclerc,43.59120512625,3.89046299125,43.594318885,3.88513482,"LINESTRING (3.89046299125 43.59120512625, 3.88513482 43.594318885)",TU000223
S5546,S5926,Maréchal Leclerc,Centrayrargues,43.594318885,3.88513482,43.59660454,3.88088611,"LINESTRING (3.88513482 43.594318885, 3.88088611 43.59660454)",TU000224
S5402,S5438,Centrayrargues,Descartes,43.59686638,3.8808066,43.59667439,3.88354737,"LINESTRING (3.8808066 43.59686638, 3.88354737 43.59667439)",TU000225
S5438,S5621,Descartes,Razeteurs,43.59667439,3.88354737,43.59557912,3.88407432,"LINESTRING (3.88354737 43.59667439, 3.88407432 43.59557912)",TU000226
S5621,S5546,Razeteurs,Maréchal Leclerc,43.59557912,3.88407432,43.594318885,3.88513482,"LINESTRING (3.88407432 43.59557912, 3.88513482 43.594318885)",TU000227
S5657,S5416,Soleiado,Cité Mion,43.60050774,3.88673748,43.600936575,3.884726605,"LINESTRING (3.88673748 43.60050774, 3.884726605 43.600936575)",TU000228
S5665,S5451,Universités Sciences et Lettres,Eugène Bataillon,43.629406725,3.86131316166667,43.631604815,3.860668445,"LINESTRING (3.86131316166667 43.629406725, 3.860668445 43.631604815)",TU000229
S5451,S5475,Eugène Bataillon,Gascogne,43.631604815,3.860668445,43.63436554,3.85996855,"LINESTRING (3.860668445 43.631604815, 3.85996855 43.63436554)",TU000230
S5475,S5903,Gascogne,Paul Parguel,43.63436554,3.85996855,43.63664447,3.85996746,"LINESTRING (3.85996855 43.63436554, 3.85996746 43.63664447)",TU000231
S5903,S5442,Paul Parguel,École d'Architecture,43.63664447,3.85996746,43.637812925,3.85870513,"LINESTRING (3.85996746 43.63664447, 3.85870513 43.637812925)",TU000232
S5442,S5557,École d'Architecture,Maurice Chauvet,43.637812925,3.85870513,43.638574005,3.856683015,"LINESTRING (3.85870513 43.637812925, 3.856683015 43.638574005)",TU000233
S5557,S5591,Maurice Chauvet,Pic Saint-Loup,43.638574005,3.856683015,43.63915378,3.8544456,"LINESTRING (3.856683015 43.638574005, 3.8544456 43.63915378)",TU000234
S5591,S5611,Pic Saint-Loup,Plan des 4 Seigneurs,43.63915378,3.8544456,43.640827535,3.8578509,"LINESTRING (3.8544456 43.63915378, 3.8578509 43.640827535)",TU000235
S5611,S5497,Plan des 4 Seigneurs,Hortus,43.640827535,3.8578509,43.643099095,3.85997256,"LINESTRING (3.8578509 43.640827535, 3.85997256 43.643099095)",TU000236
S5497,S5537,Hortus,Lycée Frédéric Bazille,43.643099095,3.85997256,43.6452835233333,3.86232108333333,"LINESTRING (3.85997256 43.643099095, 3.86232108333333 43.6452835233333)",TU000237
S5537,S5397,Lycée Frédéric Bazille,Campus Agropolis,43.6452835233333,3.86232108333333,43.6446802,3.86896928,"LINESTRING (3.86232108333333 43.6452835233333, 3.86896928 43.6446802)",TU000238
S5397,S5681,Campus Agropolis,Zoo,43.6446802,3.86896928,43.639937545,3.87312703,"LINESTRING (3.86896928 43.6446802, 3.87312703 43.639937545)",TU000239
S5681,S5520,Zoo,Lavalette,43.639937545,3.87312703,43.637735195,3.869311025,"LINESTRING (3.87312703 43.639937545, 3.869311025 43.637735195)",TU000240
S5520,S5670,Lavalette,Vert-Bois,43.637735195,3.869311025,43.6348552,3.86795266,"LINESTRING (3.869311025 43.637735195, 3.86795266 43.6348552)",TU000241
S5670,S5902,Vert-Bois,École de Chimie,43.6348552,3.86795266,43.634301445,3.865152915,"LINESTRING (3.86795266 43.6348552, 3.865152915 43.634301445)",TU000242
S5902,S5903,École de Chimie,Paul Parguel,43.634301445,3.865152915,43.63664447,3.85996746,"LINESTRING (3.865152915 43.634301445, 3.85996746 43.63664447)",TU000243
S5397,S5367,Campus Agropolis,Agropolis,43.6446802,3.86896928,43.64674464,3.8685625,"LINESTRING (3.86896928 43.6446802, 3.8685625 43.64674464)",TU000244
S5367,S5673,Agropolis,Vincent Auriol,43.64674464,3.8685625,43.64776173,3.8640215,"LINESTRING (3.8685625 43.64674464, 3.8640215 43.64776173)",TU000245
S5673,S5537,Vincent Auriol,Lycée Frédéric Bazille,43.64776173,3.8640215,43.6452835233333,3.86232108333333,"LINESTRING (3.8640215 43.64776173, 3.86232108333333 43.6452835233333)",TU000246
S5633,S5906,Sabines,Étienne Méhul,43.583822352,3.860158464,43.578644675,3.859886905,"LINESTRING (3.860158464 43.583822352, 3.859886905 43.578644675)",TU000247
S5906,S5908,Étienne Méhul,Raymond Recouly,43.578644675,3.859886905,43.57583367,3.860016005,"LINESTRING (3.859886905 43.578644675, 3.860016005 43.57583367)",TU000248
S5908,S5939,Raymond Recouly,Georges Onslow,43.57583367,3.860016005,43.572639925,3.861470195,"LINESTRING (3.860016005 43.57583367, 3.861470195 43.572639925)",TU000249
S5939,S5940,Georges Onslow,Pont de Guerre,43.572639925,3.861470195,43.57394239,3.867266665,"LINESTRING (3.861470195 43.572639925, 3.867266665 43.57394239)",TU000250
S5940,S5450,Pont de Guerre,Ettore Bugatti,43.57394239,3.867266665,43.577878025,3.86865803,"LINESTRING (3.867266665 43.57394239, 3.86865803 43.577878025)",TU000251
S5450,S5661,Ettore Bugatti,TaM,43.577878025,3.86865803,43.581424975,3.87019992,"LINESTRING (3.86865803 43.577878025, 3.87019992 43.581424975)",TU000252
S5661,S5437,TaM,Demeter,43.581424975,3.87019992,43.58327517,3.8722158,"LINESTRING (3.87019992 43.581424975, 3.8722158 43.58327517)",TU000253
S5437,S5399,Demeter,Castelle,43.58327517,3.8722158,43.586630385,3.8720648,"LINESTRING (3.8722158 43.58327517, 3.8720648 43.586630385)",TU000254
S5399,S5583,Castelle,Passerines,43.586630385,3.8720648,43.58854003,3.872425295,"LINESTRING (3.8720648 43.586630385, 3.872425295 43.58854003)",TU000255
S5583,S5530,Passerines,Les Pins,43.58854003,3.872425295,43.590804915,3.87340758,"LINESTRING (3.872425295 43.58854003, 3.87340758 43.590804915)",TU000256
S5530,S5635,Les Pins,Saint-Cléophas,43.590804915,3.87340758,43.5949304025,3.8758284025,"LINESTRING (3.87340758 43.590804915, 3.8758284025 43.5949304025)",TU000257
S5594,S5553,Pierre de Coubertin,Mas de Bellevue,43.637806405,3.814738435,43.63681437,3.81266425,"LINESTRING (3.814738435 43.637806405, 3.81266425 43.63681437)",TU000258
S5553,S5427,Mas de Bellevue,Comté de Nice,43.63681437,3.81266425,43.63877674,3.811483355,"LINESTRING (3.81266425 43.63681437, 3.811483355 43.63877674)",TU000259
S5427,S5430,Comté de Nice,Corse,43.63877674,3.811483355,43.64076861,3.811435785,"LINESTRING (3.811483355 43.63877674, 3.811435785 43.64076861)",TU000260
S5430,S5502,Corse,Jacques Prévert,43.64076861,3.811435785,43.642314475,3.81410003,"LINESTRING (3.811435785 43.64076861, 3.81410003 43.642314475)",TU000261
S5502,S5949,Jacques Prévert,Collège les Garrigues,43.642314475,3.81410003,43.64308353,3.816700965,"LINESTRING (3.81410003 43.642314475, 3.816700965 43.64308353)",TU000262
S5949,S5608,Collège les Garrigues,Place d'Italie,43.64308353,3.816700965,43.64184266,3.81836469,"LINESTRING (3.816700965 43.64308353, 3.81836469 43.64184266)",TU000263
S5608,S5398,Place d'Italie,Carriéra,43.64184266,3.81836469,43.640816765,3.81909935,"LINESTRING (3.81836469 43.64184266, 3.81909935 43.640816765)",TU000264
S5398,S5592,Carriéra,Pierre Cardenal,43.640816765,3.81909935,43.63836513,3.818911915,"LINESTRING (3.81909935 43.640816765, 3.818911915 43.63836513)",TU000265
S5592,S5428,Pierre Cardenal,Comté de Toulouse,43.63836513,3.818911915,43.636906435,3.819084465,"LINESTRING (3.818911915 43.63836513, 3.819084465 43.636906435)",TU000266
S5428,S5620,Comté de Toulouse,Raimbaud d'Orange,43.636906435,3.819084465,43.63746292,3.821116505,"LINESTRING (3.819084465 43.636906435, 3.821116505 43.63746292)",TU000267
S5620,S5490,Raimbaud d'Orange,Hauts de Massane,43.63746292,3.821116505,43.63625433,3.82271583,"LINESTRING (3.821116505 43.63746292, 3.82271583 43.63625433)",TU000268
S5490,S5476,Hauts de Massane,Gémeaux,43.63625433,3.82271583,43.63304272,3.822554895,"LINESTRING (3.82271583 43.63625433, 3.822554895 43.63304272)",TU000269
S5476,S5950,Gémeaux,Uppsala,43.63304272,3.822554895,43.629740695,3.822431845,"LINESTRING (3.822554895 43.63304272, 3.822431845 43.629740695)",TU000270
S5950,S5574,Uppsala,Oxford,43.629740695,3.822431845,43.627714855,3.822007865,"LINESTRING (3.822431845 43.629740695, 3.822007865 43.627714855)",TU000271
S5574,S5541,Oxford,Lycée Léonard de Vinci - Pierresvives,43.627714855,3.822007865,43.625966,3.823998125,"LINESTRING (3.822007865 43.627714855, 3.823998125 43.625966)",TU000272
S5541,S5498,Lycée Léonard de Vinci - Pierresvives,Hôtel du Département,43.625966,3.823998125,43.62187434,3.83501314,"LINESTRING (3.823998125 43.625966, 3.83501314 43.62187434)",TU000273
S5498,S5581,Hôtel du Département,Parc Malbosc,43.62187434,3.83501314,43.62340226,3.83097263,"LINESTRING (3.83501314 43.62187434, 3.83097263 43.62340226)",TU000274
S5581,S5541,Parc Malbosc,Lycée Léonard de Vinci - Pierresvives,43.62340226,3.83097263,43.625966,3.823998125,"LINESTRING (3.83097263 43.62340226, 3.823998125 43.625966)",TU000275
S5484,S5411,Grammont,Cimetière Saint-Étienne,43.61414078,3.93065442,43.61493063,3.93561341,"LINESTRING (3.93065442 43.61414078, 3.93561341 43.61493063)",TU000276
S5411,S5680,Cimetière Saint-Étienne,Zénith,43.61493063,3.93561341,43.612162405,3.93100132,"LINESTRING (3.93561341 43.61493063, 3.93100132 43.612162405)",TU000277
S5680,S5480,Zénith,Georges Méliès,43.612162405,3.93100132,43.606735235,3.922870225,"LINESTRING (3.93100132 43.612162405, 3.922870225 43.606735235)",TU000278
S5480,S5572,Georges Méliès,Odysseum,43.606735235,3.922870225,43.6042340125,3.9199430925,"LINESTRING (3.922870225 43.606735235, 3.9199430925 43.6042340125)",TU000279
S5605,S5480,Place de France,Georges Méliès,43.603759528,3.915564274,43.606735235,3.922870225,"LINESTRING (3.915564274 43.603759528, 3.922870225 43.606735235)",TU000280
S5196,S5173,Notre-Dame de Sablassou,Castelnau Zone d'Activités,43.6341134433333,3.92248383166667,43.636282425,3.9267113,"LINESTRING (3.92248383166667 43.6341134433333, 3.9267113 43.636282425)",TU000281
S5173,S5252,Castelnau Zone d'Activités,Pointes,43.636282425,3.9267113,43.638989745,3.933947665,"LINESTRING (3.9267113 43.636282425, 3.933947665 43.638989745)",TU000282
S5252,S5254,Pointes,Route de Nîmes,43.638989745,3.933947665,43.641694925,3.942509235,"LINESTRING (3.933947665 43.638989745, 3.942509235 43.641694925)",TU000283
S5254,S5782,Route de Nîmes,Châtaigniers,43.641694925,3.942509235,43.649267085,3.95652065,"LINESTRING (3.942509235 43.641694925, 3.95652065 43.649267085)",TU000284
S5782,S5891,Châtaigniers,Jean-Marcel Castet,43.649267085,3.95652065,43.6530550066667,3.96151477333333,"LINESTRING (3.95652065 43.649267085, 3.96151477333333 43.6530550066667)",TU000285
S5891,S5787,Jean-Marcel Castet,La Fontaine,43.6530550066667,3.96151477333333,43.657698675,3.962895555,"LINESTRING (3.96151477333333 43.6530550066667, 3.962895555 43.657698675)",TU000286
S5787,S5210,La Fontaine,Centre,43.657698675,3.962895555,43.675185765,3.98305753,"LINESTRING (3.962895555 43.657698675, 3.98305753 43.675185765)",TU000287
S5210,S5209,Centre,Aqueduc,43.675185765,3.98305753,43.679229375,3.986147195,"LINESTRING (3.98305753 43.675185765, 3.986147195 43.679229375)",TU000288
S5209,S5211,Aqueduc,Collège Les Pins,43.679229375,3.986147195,43.68419849,3.99073834,"LINESTRING (3.986147195 43.679229375, 3.99073834 43.68419849)",TU000289
S5286,S5292,Collège Pierre Mendès France,Jean Joubert,43.667421055,3.91276689,43.66723733,3.915505,"LINESTRING (3.91276689 43.667421055, 3.915505 43.66723733)",TU000290
S5292,S5293,Jean Joubert,La Draye,43.66723733,3.915505,43.666014905,3.9197995,"LINESTRING (3.915505 43.66723733, 3.9197995 43.666014905)",TU000291
S5293,S5298,La Draye,Le Pontil,43.666014905,3.9197995,43.662219145,3.924536165,"LINESTRING (3.9197995 43.666014905, 3.924536165 43.662219145)",TU000292
S5298,S5294,Le Pontil,Lou Pradet,43.662219145,3.924536165,43.66212525,3.921741075,"LINESTRING (3.924536165 43.662219145, 3.921741075 43.66212525)",TU000293
S5294,S5290,Lou Pradet,Hélios,43.66212525,3.921741075,43.66126239,3.918961825,"LINESTRING (3.921741075 43.66212525, 3.918961825 43.66126239)",TU000294
S5290,S5303,Hélios,Tournesol,43.66126239,3.918961825,43.660333795,3.915753625,"LINESTRING (3.918961825 43.66126239, 3.915753625 43.660333795)",TU000295
S5303,S5285,Tournesol,Coeur de Ville,43.660333795,3.915753625,43.65953554,3.91377504,"LINESTRING (3.915753625 43.660333795, 3.91377504 43.65953554)",TU000296
S5285,S5295,Coeur de Ville,Lucien Lambert,43.65953554,3.91377504,43.65695378,3.912341645,"LINESTRING (3.91377504 43.65953554, 3.912341645 43.65695378)",TU000297
S5295,S5291,Lucien Lambert,Jacou,43.65695378,3.912341645,43.65462876,3.91282845333333,"LINESTRING (3.912341645 43.65695378, 3.91282845333333 43.65462876)",TU000298
S5295,S5280,Lucien Lambert,Bibliothèque,43.65695378,3.912341645,43.65904865,3.911093095,"LINESTRING (3.912341645 43.65695378, 3.911093095 43.65904865)",TU000299
S5280,S5283,Bibliothèque,Cimetière Jacou,43.65904865,3.911093095,43.659374875,3.9081302,"LINESTRING (3.911093095 43.65904865, 3.9081302 43.659374875)",TU000300
S5283,S5287,Cimetière Jacou,De Bocaud,43.659374875,3.9081302,43.659657485,3.904138305,"LINESTRING (3.9081302 43.659374875, 3.904138305 43.659657485)",TU000301
S5287,S5212,De Bocaud,Cap Alpha,43.659657485,3.904138305,43.65984784,3.90050707333333,"LINESTRING (3.904138305 43.659657485, 3.90050707333333 43.65984784)",TU000302
S5212,S5216,Cap Alpha,La Croisée,43.65984784,3.90050707333333,43.66005696,3.89826736,"LINESTRING (3.90050707333333 43.65984784, 3.89826736 43.66005696)",TU000303
S5216,S5219,La Croisée,Moulières,43.66005696,3.89826736,43.66008945,3.89476386,"LINESTRING (3.89826736 43.66005696, 3.89476386 43.66008945)",TU000304
S5219,S5220,Moulières,Olivette,43.66008945,3.89476386,43.65850535,3.88925988,"LINESTRING (3.89476386 43.66008945, 3.88925988 43.65850535)",TU000305
S5220,S5217,Olivette,Leenhardt,43.65850535,3.88925988,43.65671581,3.88490219,"LINESTRING (3.88925988 43.65850535, 3.88490219 43.65671581)",TU000306
S5217,S5218,Leenhardt,Médiathèque Albert Camus,43.65671581,3.88490219,43.65556975,3.88142892,"LINESTRING (3.88490219 43.65671581, 3.88142892 43.65556975)",TU000307
S5218,S5221,Médiathèque Albert Camus,Pigeonniers,43.65556975,3.88142892,43.65379318,3.882761385,"LINESTRING (3.88142892 43.65556975, 3.882761385 43.65379318)",TU000308
S5221,S5673,Pigeonniers,Vincent Auriol,43.65379318,3.882761385,43.64776173,3.8640215,"LINESTRING (3.882761385 43.65379318, 3.8640215 43.64776173)",TU000309
S5670,S5421,Vert-Bois,CNRS,43.6348552,3.86795266,43.63884137,3.86546632,"LINESTRING (3.86795266 43.6348552, 3.86546632 43.63884137)",TU000310
S5421,S5562,CNRS,Montmaur,43.63884137,3.86546632,43.64092704,3.86355395,"LINESTRING (3.86546632 43.63884137, 3.86355395 43.64092704)",TU000311
S5562,S5537,Montmaur,Lycée Frédéric Bazille,43.64092704,3.86355395,43.6452835233333,3.86232108333333,"LINESTRING (3.86355395 43.64092704, 3.86232108333333 43.6452835233333)",TU000312
S5537,S5919,Lycée Frédéric Bazille,Vincent Auriol,43.6452835233333,3.86232108333333,43.64837411,3.86458262,"LINESTRING (3.86232108333333 43.6452835233333, 3.86458262 43.64837411)",TU000313
S5919,S5948,Vincent Auriol,Fesquet,43.64837411,3.86458262,43.65314463,3.88127662,"LINESTRING (3.86458262 43.64837411, 3.88127662 43.65314463)",TU000314
S5948,S5221,Fesquet,Pigeonniers,43.65314463,3.88127662,43.65379318,3.882761385,"LINESTRING (3.88127662 43.65314463, 3.882761385 43.65379318)",TU000315
S5221,S5222,Pigeonniers,Stade,43.65379318,3.882761385,43.65349863,3.88921037,"LINESTRING (3.882761385 43.65379318, 3.88921037 43.65349863)",TU000316
S5222,S5213,Stade,Château,43.65349863,3.88921037,43.65530122,3.89223107,"LINESTRING (3.88921037 43.65349863, 3.89223107 43.65530122)",TU000317
S5213,S5855,Château,Chêne Liège,43.65530122,3.89223107,43.659850305,3.896076115,"LINESTRING (3.89223107 43.65530122, 3.896076115 43.659850305)",TU000318
S5855,S5212,Chêne Liège,Cap Alpha,43.659850305,3.896076115,43.65984784,3.90050707333333,"LINESTRING (3.896076115 43.659850305, 3.90050707333333 43.65984784)",TU000319
S5721,S5882,Versant,Paris,43.66519794,4.037421985,43.66828353,4.04073411,"LINESTRING (4.037421985 43.66519794, 4.04073411 43.66828353)",TU000320
S5882,S5883,Paris,Piscine Héraclès,43.66828353,4.04073411,43.66966495,4.037214525,"LINESTRING (4.04073411 43.66828353, 4.037214525 43.66966495)",TU000321
S5883,S5884,Piscine Héraclès,Sainte-Colombe,43.66966495,4.037214525,43.668213025,4.03434743,"LINESTRING (4.037214525 43.66966495, 4.03434743 43.668213025)",TU000322
S5884,S5717,Sainte-Colombe,Micocoulier,43.668213025,4.03434743,43.66683092,4.03046081,"LINESTRING (4.03434743 43.668213025, 4.03046081 43.66683092)",TU000323
S5717,S5720,Micocoulier,Sophoras,43.66683092,4.03046081,43.66845173,4.02655803,"LINESTRING (4.03046081 43.66683092, 4.02655803 43.66845173)",TU000324
S5720,S5155,Sophoras,Collège Le Bérange,43.66845173,4.02655803,43.66728761,4.02337778,"LINESTRING (4.02655803 43.66845173, 4.02337778 43.66728761)",TU000325
S5155,S5156,Collège Le Bérange,Fenouillet,43.66728761,4.02337778,43.664311795,4.02193374,"LINESTRING (4.02337778 43.66728761, 4.02193374 43.664311795)",TU000326
S5156,S5158,Fenouillet,Gaston Baissette,43.664311795,4.02193374,43.66449924,4.01710319,"LINESTRING (4.02193374 43.664311795, 4.01710319 43.66449924)",TU000327
S5158,S5163,Gaston Baissette,Paradis,43.66449924,4.01710319,43.66396082,4.0141399,"LINESTRING (4.01710319 43.66449924, 4.0141399 43.66396082)",TU000328
S5163,S5162,Paradis,Mairie de Baillargues,43.66396082,4.0141399,43.661511125,4.01354778,"LINESTRING (4.0141399 43.66396082, 4.01354778 43.661511125)",TU000329
S5162,S5160,Mairie de Baillargues,Le Grès,43.661511125,4.01354778,43.66264654,4.00843563,"LINESTRING (4.01354778 43.661511125, 4.00843563 43.66264654)",TU000330
S5160,S5164,Le Grès,Paul Cézanne,43.66264654,4.00843563,43.659541465,4.006326215,"LINESTRING (4.00843563 43.66264654, 4.006326215 43.659541465)",TU000331
S5164,S5165,Paul Cézanne,Treille,43.659541465,4.006326215,43.65666349,4.00231055,"LINESTRING (4.006326215 43.659541465, 4.00231055 43.65666349)",TU000332
S5165,S5154,Treille,Biste,43.65666349,4.00231055,43.65581231,4.000075455,"LINESTRING (4.00231055 43.65666349, 4.000075455 43.65581231)",TU000333
S5154,S5852,Biste,Gare de Baillargues,43.65581231,4.000075455,43.6533705925,4.0078667825,"LINESTRING (4.000075455 43.65581231, 4.0078667825 43.6533705925)",TU000334
S5852,S5792,Gare de Baillargues,Paul Gauguin,43.6533705925,4.0078667825,43.65537324,3.97551485,"LINESTRING (4.0078667825 43.6533705925, 3.97551485 43.65537324)",TU000335
S5792,S5786,Paul Gauguin,Gustave Courbet,43.65537324,3.97551485,43.658187345,3.97609716,"LINESTRING (3.97551485 43.65537324, 3.97609716 43.658187345)",TU000336
S5786,S5791,Gustave Courbet,Parc Vendargues,43.658187345,3.97609716,43.660710265,3.97542663,"LINESTRING (3.97609716 43.658187345, 3.97542663 43.660710265)",TU000337
S5791,S5780,Parc Vendargues,Albert Dubout,43.660710265,3.97542663,43.662043895,3.974926235,"LINESTRING (3.97542663 43.660710265, 3.974926235 43.662043895)",TU000338
S5780,S5785,Albert Dubout,Frédéric Mistral,43.662043895,3.974926235,43.663918675,3.974311315,"LINESTRING (3.974926235 43.662043895, 3.974311315 43.663918675)",TU000339
S5785,S5783,Frédéric Mistral,Devèzes,43.663918675,3.974311315,43.66284089,3.97037329,"LINESTRING (3.974311315 43.663918675, 3.97037329 43.66284089)",TU000340
S5783,S5789,Devèzes,Monnaie,43.66284089,3.97037329,43.66119263,3.969979375,"LINESTRING (3.97037329 43.66284089, 3.969979375 43.66119263)",TU000341
S5789,S5793,Monnaie,Balances,43.66119263,3.969979375,43.657751075,3.96837639,"LINESTRING (3.969979375 43.66119263, 3.96837639 43.657751075)",TU000342
S5793,S5781,Balances,Arènes Roger Itier,43.657751075,3.96837639,43.655264995,3.967500475,"LINESTRING (3.96837639 43.657751075, 3.967500475 43.655264995)",TU000343
S5781,S5790,Arènes Roger Itier,Parc Gouneaud,43.655264995,3.967500475,43.65418065,3.963983985,"LINESTRING (3.967500475 43.655264995, 3.963983985 43.65418065)",TU000344
S5790,S5891,Parc Gouneaud,Jean-Marcel Castet,43.65418065,3.963983985,43.6530550066667,3.96151477333333,"LINESTRING (3.963983985 43.65418065, 3.96151477333333 43.6530550066667)",TU000345
S5162,S5161,Mairie de Baillargues,Le Levant,43.661511125,4.01354778,43.66169756,4.01804855,"LINESTRING (4.01354778 43.661511125, 4.01804855 43.66169756)",TU000346
S5161,S5156,Le Levant,Fenouillet,43.66169756,4.01804855,43.664311795,4.02193374,"LINESTRING (4.01804855 43.66169756, 4.02193374 43.664311795)",TU000347
S5177,S5199,Charles de Gaulle,Place de la Liberté,43.62817536375,3.8974032625,43.632612645,3.895944925,"LINESTRING (3.8974032625 43.62817536375, 3.895944925 43.632612645)",TU000348
S5199,S5183,Place de la Liberté,Closerie des Guilhems,43.632612645,3.895944925,43.63460011,3.894959495,"LINESTRING (3.895944925 43.632612645, 3.894959495 43.63460011)",TU000349
S5183,S5188,Closerie des Guilhems,Jean Jaurès,43.63460011,3.894959495,43.639988915,3.894066775,"LINESTRING (3.894959495 43.63460011, 3.894066775 43.639988915)",TU000350
S5188,S5175,Jean Jaurès,Caylus,43.639988915,3.894066775,43.64504846,3.898246775,"LINESTRING (3.894066775 43.639988915, 3.898246775 43.64504846)",TU000351
S5175,S5187,Caylus,Idate,43.64504846,3.898246775,43.652303995,3.895083745,"LINESTRING (3.898246775 43.64504846, 3.895083745 43.652303995)",TU000352
S5187,S5213,Idate,Château,43.652303995,3.895083745,43.65530122,3.89223107,"LINESTRING (3.895083745 43.652303995, 3.89223107 43.65530122)",TU000353
S5212,S5860,Cap Alpha,Pinède,43.65984784,3.90050707333333,43.66398524,3.90513642,"LINESTRING (3.90050707333333 43.65984784, 3.90513642 43.66398524)",TU000354
S5860,S5858,Pinède,Écureuils,43.66398524,3.90513642,43.663861745,3.90838378,"LINESTRING (3.90513642 43.66398524, 3.90838378 43.663861745)",TU000355
S5858,S5286,Écureuils,Collège Pierre Mendès France,43.663861745,3.90838378,43.667421055,3.91276689,"LINESTRING (3.90838378 43.663861745, 3.91276689 43.667421055)",TU000356
S5216,S5855,La Croisée,Chêne Liège,43.66005696,3.89826736,43.659850305,3.896076115,"LINESTRING (3.89826736 43.66005696, 3.896076115 43.659850305)",TU000357
S5586,S5343,Paul Fajon,La Capoulière,43.596375575,3.83711203,43.58694569,3.809972605,"LINESTRING (3.83711203 43.596375575, 3.809972605 43.58694569)",TU000358
S5343,S5344,La Capoulière,La Croix,43.58694569,3.809972605,43.585236225,3.80777058,"LINESTRING (3.809972605 43.58694569, 3.80777058 43.585236225)",TU000359
S5344,S5951,La Croix,MARRONNIERS,43.585236225,3.80777058,43.58471816,3.80222948,"LINESTRING (3.80777058 43.585236225, 3.80222948 43.58471816)",TU000360
S5951,S5346,MARRONNIERS,Mas de Lépôt,43.58471816,3.80222948,43.586453955,3.79818061,"LINESTRING (3.80222948 43.58471816, 3.79818061 43.586453955)",TU000361
S5346,S5703,Mas de Lépôt,Saint-Martin de Vignogoul,43.586453955,3.79818061,43.58565771,3.790227115,"LINESTRING (3.79818061 43.586453955, 3.790227115 43.58565771)",TU000362
S5703,S5847,Saint-Martin de Vignogoul,Saint-Estève,43.58565771,3.790227115,43.58592943,3.7719006,"LINESTRING (3.790227115 43.58565771, 3.7719006 43.58592943)",TU000363
S5847,S5695,Saint-Estève,Distillerie,43.58592943,3.7719006,43.58594126,3.76693574,"LINESTRING (3.7719006 43.58592943, 3.76693574 43.58594126)",TU000364
S5695,S5700,Distillerie,Lotissement Les Violettes,43.58594126,3.76693574,43.587122635,3.76596978,"LINESTRING (3.76693574 43.58594126, 3.76596978 43.587122635)",TU000365
S5700,S5699,Lotissement Les Violettes,Le Temple,43.587122635,3.76596978,43.58532712,3.76272816,"LINESTRING (3.76596978 43.587122635, 3.76272816 43.58532712)",TU000366
S5699,S5702,Le Temple,Médiathèque La Gare,43.58532712,3.76272816,43.58560545,3.76070701,"LINESTRING (3.76272816 43.58532712, 3.76070701 43.58560545)",TU000367
S5702,S5694,Médiathèque La Gare,Coopérative Oléicole,43.58560545,3.76070701,43.58445466,3.757302375,"LINESTRING (3.76070701 43.58560545, 3.757302375 43.58445466)",TU000368
S5694,S5696,Coopérative Oléicole,Gaston Defferre,43.58445466,3.757302375,43.583917015,3.75305982,"LINESTRING (3.757302375 43.58445466, 3.75305982 43.583917015)",TU000369
S5696,S5697,Gaston Defferre,Jean Moulin,43.583917015,3.75305982,43.58231498,3.75217925,"LINESTRING (3.75305982 43.583917015, 3.75217925 43.58231498)",TU000370
S5697,S5701,Jean Moulin,Maison de Retraite,43.58231498,3.75217925,43.58109809,3.751060955,"LINESTRING (3.75217925 43.58231498, 3.751060955 43.58109809)",TU000371
S5701,S5698,Maison de Retraite,La Bornière,43.58109809,3.751060955,43.5793925933333,3.75419244666667,"LINESTRING (3.751060955 43.58109809, 3.75419244666667 43.5793925933333)",TU000372
S5698,S5849,La Bornière,Jardins d'Hélios,43.5793925933333,3.75419244666667,43.5667421,3.72962188,"LINESTRING (3.75419244666667 43.5793925933333, 3.72962188 43.5667421)",TU000373
S5849,S5230,Jardins d'Hélios,Beaulieu,43.5667421,3.72962188,43.56031264,3.72735771,"LINESTRING (3.72962188 43.5667421, 3.72735771 43.56031264)",TU000374
S5230,S5236,Beaulieu,Stade,43.56031264,3.72735771,43.55545634,3.722283315,"LINESTRING (3.72735771 43.56031264, 3.722283315 43.55545634)",TU000375
S5236,S5234,Stade,Les Grenaches,43.55545634,3.722283315,43.552929005,3.71888507,"LINESTRING (3.722283315 43.55545634, 3.71888507 43.552929005)",TU000376
S5234,S5232,Les Grenaches,Jean Jaurès,43.552929005,3.71888507,43.55851576,3.71182636,"LINESTRING (3.71888507 43.552929005, 3.71182636 43.55851576)",TU000377
S5232,S5231,Jean Jaurès,Chanterelles,43.55851576,3.71182636,43.55982928,3.70819918,"LINESTRING (3.71182636 43.55851576, 3.70819918 43.55982928)",TU000378
S5231,S5233,Chanterelles,Jean Moulin,43.55982928,3.70819918,43.55490934,3.71267896,"LINESTRING (3.70819918 43.55982928, 3.71267896 43.55490934)",TU000379
S5233,S5229,Jean Moulin,Tournesol,43.55490934,3.71267896,43.55279629,3.709902905,"LINESTRING (3.71267896 43.55490934, 3.709902905 43.55279629)",TU000380
S5229,S5226,Tournesol,Mairie,43.55279629,3.709902905,43.549658275,3.707139575,"LINESTRING (3.709902905 43.55279629, 3.707139575 43.549658275)",TU000381
S5226,S5228,Mairie,Tambourin,43.549658275,3.707139575,43.54854404,3.70498107,"LINESTRING (3.707139575 43.549658275, 3.70498107 43.54854404)",TU000382
S5228,S5224,Tambourin,La Vierge,43.54854404,3.70498107,43.546124105,3.70300154,"LINESTRING (3.70498107 43.54854404, 3.70300154 43.546124105)",TU000383
S5224,S5223,La Vierge,Hauts des Clavoux,43.546124105,3.70300154,43.54472306,3.70112681,"LINESTRING (3.70300154 43.546124105, 3.70112681 43.54472306)",TU000384
S5223,S5225,Hauts des Clavoux,Les Clavoux,43.54472306,3.70112681,43.543970755,3.70233223,"LINESTRING (3.70112681 43.54472306, 3.70233223 43.543970755)",TU000385
S5229,S5232,Tournesol,Jean Jaurès,43.55279629,3.709902905,43.55851576,3.71182636,"LINESTRING (3.709902905 43.55279629, 3.71182636 43.55851576)",TU000386
S5233,S5234,Jean Moulin,Les Grenaches,43.55490934,3.71267896,43.552929005,3.71888507,"LINESTRING (3.71267896 43.55490934, 3.71888507 43.552929005)",TU000387
S5694,S5704,Coopérative Oléicole,Square Tribes,43.58445466,3.757302375,43.58380897,3.75992029,"LINESTRING (3.757302375 43.58445466, 3.75992029 43.58380897)",TU000388
S5704,S5699,Square Tribes,Le Temple,43.58380897,3.75992029,43.58532712,3.76272816,"LINESTRING (3.75992029 43.58380897, 3.76272816 43.58532712)",TU000389
S5343,S5754,La Capoulière,Le Terral,43.58694569,3.809972605,43.5928008,3.82256593,"LINESTRING (3.809972605 43.58694569, 3.82256593 43.5928008)",TU000390
S5754,S5586,Le Terral,Paul Fajon,43.5928008,3.82256593,43.596375575,3.83711203,"LINESTRING (3.82256593 43.5928008, 3.83711203 43.596375575)",TU000391
S5633,S5336,Sabines,Manse,43.583822352,3.860158464,43.570988415,3.877776985,"LINESTRING (3.860158464 43.583822352, 3.877776985 43.570988415)",TU000392
S5336,S5333,Manse,Entreprises,43.570988415,3.877776985,43.56416184,3.879292745,"LINESTRING (3.877776985 43.570988415, 3.879292745 43.56416184)",TU000393
S5333,S5339,Entreprises,Montpellieret,43.56416184,3.879292745,43.560380995,3.877460145,"LINESTRING (3.879292745 43.56416184, 3.877460145 43.560380995)",TU000394
S5339,S5332,Montpellieret,Crédit Agricole,43.560380995,3.877460145,43.55844585,3.87636968,"LINESTRING (3.877460145 43.560380995, 3.87636968 43.55844585)",TU000395
S5333,S5338,Entreprises,Montouzères,43.56416184,3.879292745,43.5684388,3.88414941,"LINESTRING (3.879292745 43.56416184, 3.88414941 43.5684388)",TU000396
S5338,S5341,Montouzères,Saint-Pierre,43.5684388,3.88414941,43.572507845,3.89376129,"LINESTRING (3.88414941 43.5684388, 3.89376129 43.572507845)",TU000397
S5341,S5330,Saint-Pierre,Cimetière Saint-Laurent,43.572507845,3.89376129,43.56852681,3.899902415,"LINESTRING (3.89376129 43.572507845, 3.899902415 43.56852681)",TU000398
S5330,S5337,Cimetière Saint-Laurent,Méjean,43.56852681,3.899902415,43.56736022,3.90038357,"LINESTRING (3.899902415 43.56852681, 3.90038357 43.56736022)",TU000399
S5337,S5335,Méjean,Mairie,43.56736022,3.90038357,43.56862144,3.90423211,"LINESTRING (3.90038357 43.56736022, 3.90423211 43.56862144)",TU000400
S5335,S5327,Mairie,Lattes Centre,43.56862144,3.90423211,43.5707753533333,3.90519991333333,"LINESTRING (3.90423211 43.56862144, 3.90519991333333 43.5707753533333)",TU000401
S5335,S5330,Mairie,Cimetière Saint-Laurent,43.56862144,3.90423211,43.56852681,3.899902415,"LINESTRING (3.90423211 43.56862144, 3.899902415 43.56852681)",TU000402
S5861,S5323,Courpouyran,Terres du Sud,43.620807315,3.7878116,43.619102145,3.791282425,"LINESTRING (3.7878116 43.620807315, 3.791282425 43.619102145)",TU000403
S5323,S5312,Terres du Sud,La Bergerie,43.619102145,3.791282425,43.61675293,3.797174145,"LINESTRING (3.791282425 43.619102145, 3.797174145 43.61675293)",TU000404
S5312,S5314,La Bergerie,Le Labournas,43.61675293,3.797174145,43.614415155,3.800869505,"LINESTRING (3.797174145 43.61675293, 3.800869505 43.614415155)",TU000405
S5314,S5310,Le Labournas,Hôtel de Ville,43.614415155,3.800869505,43.61382793,3.8067191,"LINESTRING (3.800869505 43.614415155, 3.8067191 43.61382793)",TU000406
S5310,S5304,Hôtel de Ville,Allée de l'Europe,43.61382793,3.8067191,43.613912925,3.810383605,"LINESTRING (3.8067191 43.61382793, 3.810383605 43.613912925)",TU000407
S5304,S5322,Allée de l'Europe,Route de Saint-Georges,43.613912925,3.810383605,43.61281323,3.80895096,"LINESTRING (3.810383605 43.613912925, 3.80895096 43.61281323)",TU000408
S5322,S5324,Route de Saint-Georges,Valat de la Fosse,43.61281323,3.80895096,43.610495205,3.80555079,"LINESTRING (3.80895096 43.61281323, 3.80555079 43.610495205)",TU000409
S5324,S5318,Valat de la Fosse,Marjories,43.610495205,3.80555079,43.60968819,3.807385805,"LINESTRING (3.80555079 43.610495205, 3.807385805 43.60968819)",TU000410
S5318,S5317,Marjories,Luminaire,43.60968819,3.807385805,43.607831435,3.811049415,"LINESTRING (3.807385805 43.60968819, 3.811049415 43.607831435)",TU000411
S5317,S5306,Luminaire,Églantiers,43.607831435,3.811049415,43.607979435,3.81305122,"LINESTRING (3.811049415 43.607831435, 3.81305122 43.607979435)",TU000412
S5306,S5321,Églantiers,Rivière,43.607979435,3.81305122,43.60958914,3.81564141,"LINESTRING (3.81305122 43.607979435, 3.81564141 43.60958914)",TU000413
S5321,S5313,Rivière,La Plaine,43.60958914,3.81564141,43.611828725,3.814567335,"LINESTRING (3.81564141 43.60958914, 3.814567335 43.611828725)",TU000414
S5313,S5320,La Plaine,Récantou,43.611828725,3.814567335,43.61314562,3.81588815,"LINESTRING (3.814567335 43.611828725, 3.81588815 43.61314562)",TU000415
S5320,S5311,Récantou,Juvignac,43.61314562,3.81588815,43.6175292,3.80998197,"LINESTRING (3.81588815 43.61314562, 3.80998197 43.6175292)",TU000416
S5311,S5864,Juvignac,Saturne,43.6175292,3.80998197,43.6195814,3.804058305,"LINESTRING (3.80998197 43.6175292, 3.804058305 43.6195814)",TU000417
S5864,S5316,Saturne,Les Thermes,43.6195814,3.804058305,43.621932715,3.800035155,"LINESTRING (3.804058305 43.6195814, 3.800035155 43.621932715)",TU000418
S5316,S5325,Les Thermes,Village,43.621932715,3.800035155,43.6245845,3.799713285,"LINESTRING (3.800035155 43.621932715, 3.799713285 43.6245845)",TU000419
S5325,S5305,Village,Calade,43.6245845,3.799713285,43.62757777,3.79940015,"LINESTRING (3.799713285 43.6245845, 3.79940015 43.62757777)",TU000420
S5305,S5319,Calade,Mélanie,43.62757777,3.79940015,43.630303415,3.79826947,"LINESTRING (3.79940015 43.62757777, 3.79826947 43.630303415)",TU000421
S5319,S5309,Mélanie,Hauts de Fontcaude,43.630303415,3.79826947,43.632079345,3.799564965,"LINESTRING (3.79826947 43.630303415, 3.799564965 43.632079345)",TU000422
S5309,S5307,Hauts de Fontcaude,Fontcaude,43.632079345,3.799564965,43.6322673,3.801952285,"LINESTRING (3.799564965 43.632079345, 3.801952285 43.6322673)",TU000423
S5307,S5315,Fontcaude,Le Martinet,43.6322673,3.801952285,43.634194,3.80372833,"LINESTRING (3.801952285 43.6322673, 3.80372833 43.634194)",TU000424
S5849,S5754,Jardins d'Hélios,Le Terral,43.5667421,3.72962188,43.5928008,3.82256593,"LINESTRING (3.72962188 43.5667421, 3.82256593 43.5928008)",TU000425
S5586,S5849,Paul Fajon,Jardins d'Hélios,43.596375575,3.83711203,43.5667421,3.72962188,"LINESTRING (3.83711203 43.596375575, 3.72962188 43.5667421)",TU000426
S5274,S5276,Le Pradas,Les Terrasses,43.6606809,3.79217493,43.654340495,3.79036034,"LINESTRING (3.79217493 43.6606809, 3.79036034 43.654340495)",TU000427
S5276,S5278,Les Terrasses,Source,43.654340495,3.79036034,43.650549955,3.79113046,"LINESTRING (3.79036034 43.654340495, 3.79113046 43.650549955)",TU000428
S5278,S5814,Source,Pierre Doumergue,43.650549955,3.79113046,43.64956825,3.793940555,"LINESTRING (3.79113046 43.650549955, 3.793940555 43.64956825)",TU000429
S5814,S5269,Pierre Doumergue,Grabels Centre,43.64956825,3.793940555,43.64758783,3.799139105,"LINESTRING (3.793940555 43.64956825, 3.799139105 43.64758783)",TU000430
S5269,S5268,Grabels Centre,Cave Coopérative,43.64758783,3.799139105,43.64690398,3.801845145,"LINESTRING (3.799139105 43.64758783, 3.801845145 43.64690398)",TU000431
S5268,S5270,Cave Coopérative,Garriguettes,43.64690398,3.801845145,43.64684998,3.805830065,"LINESTRING (3.801845145 43.64690398, 3.805830065 43.64684998)",TU000432
S5270,S5275,Garriguettes,Le Rio,43.64684998,3.805830065,43.64654614,3.808013465,"LINESTRING (3.805830065 43.64684998, 3.808013465 43.64654614)",TU000433
S5275,S5272,Le Rio,Genêts,43.64654614,3.808013465,43.645940895,3.811532255,"LINESTRING (3.808013465 43.64654614, 3.811532255 43.645940895)",TU000434
S5272,S5267,Genêts,Avenue de Rome,43.645940895,3.811532255,43.643076895,3.824072515,"LINESTRING (3.811532255 43.645940895, 3.824072515 43.643076895)",TU000435
S5267,S5453,Avenue de Rome,Euromédecine,43.643076895,3.824072515,43.63905096,3.828146522,"LINESTRING (3.824072515 43.643076895, 3.828146522 43.63905096)",TU000436
S5453,S5544,Euromédecine,Malbosc - Domaine d'Ô,43.63905096,3.828146522,43.6347173625,3.8332986175,"LINESTRING (3.828146522 43.63905096, 3.8332986175 43.6347173625)",TU000437
S5544,S5468,Malbosc - Domaine d'Ô,Galéra,43.6347173625,3.8332986175,43.636701705,3.83655646,"LINESTRING (3.8332986175 43.6347173625, 3.83655646 43.636701705)",TU000438
S5468,S5434,Galéra,Croix de Lavit,43.636701705,3.83655646,43.639240725,3.83919165,"LINESTRING (3.83655646 43.636701705, 3.83919165 43.639240725)",TU000439
S5434,S5381,Croix de Lavit,Apothicaires,43.639240725,3.83919165,43.641653505,3.835046355,"LINESTRING (3.83919165 43.639240725, 3.835046355 43.641653505)",TU000440
S5381,S5395,Apothicaires,Caducée,43.641653505,3.835046355,43.643445805,3.833180815,"LINESTRING (3.835046355 43.641653505, 3.833180815 43.643445805)",TU000441
S5395,S5271,Caducée,Gaston Planté,43.643445805,3.833180815,43.646174155,3.83090637,"LINESTRING (3.833180815 43.643445805, 3.83090637 43.646174155)",TU000442
S5271,S5277,Gaston Planté,L'Île Bleue,43.646174155,3.83090637,43.648916755,3.8318324,"LINESTRING (3.83090637 43.646174155, 3.8318324 43.648916755)",TU000443
S5277,S5273,L'Île Bleue,La Valsière,43.648916755,3.8318324,43.65001137,3.83231296,"LINESTRING (3.8318324 43.648916755, 3.83231296 43.65001137)",TU000444
S5470,S5328,Garcia Lorca,Céreirède,43.59120512625,3.89046299125,43.58134755,3.89822509,"LINESTRING (3.89046299125 43.59120512625, 3.89822509 43.58134755)",TU000445
S5328,S5329,Céreirède,Chemin de Lattes,43.58134755,3.89822509,43.572707495,3.89643736,"LINESTRING (3.89822509 43.58134755, 3.89643736 43.572707495)",TU000446
S5329,S5340,Chemin de Lattes,Oasis Palavasienne,43.572707495,3.89643736,43.55525603,3.89290829,"LINESTRING (3.89643736 43.572707495, 3.89290829 43.55525603)",TU000447
S5340,S5797,Oasis Palavasienne,Arnel,43.55525603,3.89290829,43.537831255,3.869259615,"LINESTRING (3.89290829 43.55525603, 3.869259615 43.537831255)",TU000448
S5797,S5800,Arnel,Boulevard du Chapitre,43.537831255,3.869259615,43.53304643,3.86468347,"LINESTRING (3.869259615 43.537831255, 3.86468347 43.53304643)",TU000449
S5800,S5809,Boulevard du Chapitre,Pilou,43.53304643,3.86468347,43.52982521,3.865857595,"LINESTRING (3.86468347 43.53304643, 3.865857595 43.52982521)",TU000450
S5809,S5806,Pilou,Myosotis,43.52982521,3.865857595,43.528270665,3.86486475,"LINESTRING (3.865857595 43.52982521, 3.86486475 43.528270665)",TU000451
S5806,S5807,Myosotis,Oliviers de Bohême,43.528270665,3.86486475,43.52709089,3.862158575,"LINESTRING (3.86486475 43.528270665, 3.862158575 43.52709089)",TU000452
S5807,S5812,Oliviers de Bohême,Tadornes,43.52709089,3.862158575,43.526167885,3.8613186,"LINESTRING (3.862158575 43.52709089, 3.8613186 43.526167885)",TU000453
S5812,S5803,Tadornes,Les Moures,43.526167885,3.8613186,43.524456445,3.859018475,"LINESTRING (3.8613186 43.526167885, 3.859018475 43.524456445)",TU000454
S5803,S5808,Les Moures,Pèlerine,43.524456445,3.859018475,43.526440955,3.855013025,"LINESTRING (3.859018475 43.524456445, 3.855013025 43.526440955)",TU000455
S5808,S5892,Pèlerine,Domenoves,43.526440955,3.855013025,43.530118615,3.853331575,"LINESTRING (3.855013025 43.526440955, 3.853331575 43.530118615)",TU000456
S5892,S5813,Domenoves,Vignes Vierges,43.530118615,3.853331575,43.532000715,3.8527699,"LINESTRING (3.853331575 43.530118615, 3.8527699 43.532000715)",TU000457
S5813,S5893,Vignes Vierges,Figuière,43.532000715,3.8527699,43.53477861,3.855951,"LINESTRING (3.8527699 43.532000715, 3.855951 43.53477861)",TU000458
S5893,S5798,Figuière,Avenue de la Gare,43.53477861,3.855951,43.53697439,3.857374685,"LINESTRING (3.855951 43.53477861, 3.857374685 43.53697439)",TU000459
S5798,S5897,Avenue de la Gare,Pont de Villeneuve,43.53697439,3.857374685,43.553602895,3.84561167,"LINESTRING (3.857374685 43.53697439, 3.84561167 43.553602895)",TU000460
S5897,S5752,Pont de Villeneuve,La Lauze,43.553602895,3.84561167,43.561834705,3.8467437,"LINESTRING (3.84561167 43.553602895, 3.8467437 43.561834705)",TU000461
S5752,S5954,La Lauze,Saint-Exupéry,43.561834705,3.8467437,43.56263216,3.84144923,"LINESTRING (3.8467437 43.561834705, 3.84144923 43.56263216)",TU000462
S5954,S5761,Saint-Exupéry,Saint-Jean le Sec,43.56263216,3.84144923,43.5708042575,3.8378316925,"LINESTRING (3.84144923 43.56263216, 3.8378316925 43.5708042575)",TU000463
S5798,S5805,Avenue de la Gare,Maison d'Arrêt,43.53697439,3.857374685,43.546286975,3.82868569,"LINESTRING (3.857374685 43.53697439, 3.82868569 43.546286975)",TU000464
S5805,S5941,Maison d'Arrêt,Charles Martel,43.546286975,3.82868569,43.55057786,3.835286165,"LINESTRING (3.82868569 43.546286975, 3.835286165 43.55057786)",TU000465
S5941,S5752,Charles Martel,La Lauze,43.55057786,3.835286165,43.561834705,3.8467437,"LINESTRING (3.835286165 43.55057786, 3.8467437 43.561834705)",TU000466
S5798,S5802,Avenue de la Gare,Font Majour,43.53697439,3.857374685,43.53506205,3.85944286,"LINESTRING (3.857374685 43.53697439, 3.85944286 43.53506205)",TU000467
S5802,S5799,Font Majour,Boulevard des Écoles,43.53506205,3.85944286,43.53330719,3.86149656,"LINESTRING (3.85944286 43.53506205, 3.86149656 43.53330719)",TU000468
S5799,S5811,Boulevard des Écoles,Stade,43.53330719,3.86149656,43.53323033,3.85546508,"LINESTRING (3.86149656 43.53330719, 3.85546508 43.53323033)",TU000469
S5811,S5813,Stade,Vignes Vierges,43.53323033,3.85546508,43.532000715,3.8527699,"LINESTRING (3.85546508 43.53323033, 3.8527699 43.532000715)",TU000470
S5797,S5334,Arnel,Gramenet,43.537831255,3.869259615,43.54888214,3.89450214,"LINESTRING (3.869259615 43.537831255, 3.89450214 43.54888214)",TU000471
S5334,S5340,Gramenet,Oasis Palavasienne,43.54888214,3.89450214,43.55525603,3.89290829,"LINESTRING (3.89450214 43.54888214, 3.89290829 43.55525603)",TU000472
S5887,S5888,La Fermaude,Oliviers,43.59028608,3.83802194,43.58916528,3.829044665,"LINESTRING (3.83802194 43.59028608, 3.829044665 43.58916528)",TU000473
S5888,S5755,Oliviers,Louise Michel,43.58916528,3.829044665,43.58101331,3.83382133,"LINESTRING (3.829044665 43.58916528, 3.83382133 43.58101331)",TU000474
S5755,S5746,Louise Michel,Château du Terral,43.58101331,3.83382133,43.58314527,3.83046414,"LINESTRING (3.83382133 43.58101331, 3.83046414 43.58314527)",TU000475
S5746,S5756,Château du Terral,Marquerose,43.58314527,3.83046414,43.583696865,3.82664503,"LINESTRING (3.83046414 43.58314527, 3.82664503 43.583696865)",TU000476
S5756,S5743,Marquerose,Allée du Bois,43.583696865,3.82664503,43.582380835,3.824619805,"LINESTRING (3.82664503 43.583696865, 3.824619805 43.582380835)",TU000477
S5743,S5747,Allée du Bois,Collège Louis Germain,43.582380835,3.824619805,43.5795806,3.823316555,"LINESTRING (3.824619805 43.582380835, 3.823316555 43.5795806)",TU000478
S5747,S5886,Collège Louis Germain,Jean Vilar,43.5795806,3.823316555,43.577291445,3.828963375,"LINESTRING (3.823316555 43.5795806, 3.828963375 43.577291445)",TU000479
S5886,S5905,Jean Vilar,St Jean de Védas Centre - Ortet,43.577291445,3.828963375,43.57566707,3.830070865,"LINESTRING (3.828963375 43.577291445, 3.830070865 43.57566707)",TU000480
S5905,S5744,St Jean de Védas Centre - Ortet,Cave Coopérative,43.57566707,3.830070865,43.573444335,3.827311255,"LINESTRING (3.830070865 43.57566707, 3.827311255 43.573444335)",TU000481
S5744,S5750,Cave Coopérative,Jasses,43.573444335,3.827311255,43.570822125,3.82809595,"LINESTRING (3.827311255 43.573444335, 3.82809595 43.570822125)",TU000482
S5750,S5761,Jasses,Saint-Jean le Sec,43.570822125,3.82809595,43.5708042575,3.8378316925,"LINESTRING (3.82809595 43.570822125, 3.8378316925 43.5708042575)",TU000483
S5750,S5757,Jasses,Mas de Magret,43.570822125,3.82809595,43.56732943,3.82812227,"LINESTRING (3.82809595 43.570822125, 3.82812227 43.56732943)",TU000484
S5757,S5765,Mas de Magret,Val des Garrigues,43.56732943,3.82812227,43.5666827,3.82678261,"LINESTRING (3.82812227 43.56732943, 3.82678261 43.5666827)",TU000485
S5765,S5761,Val des Garrigues,Saint-Jean le Sec,43.5666827,3.82678261,43.5708042575,3.8378316925,"LINESTRING (3.82678261 43.5666827, 3.8378316925 43.5708042575)",TU000486
S5888,S5746,Oliviers,Château du Terral,43.58916528,3.829044665,43.58314527,3.83046414,"LINESTRING (3.829044665 43.58916528, 3.83046414 43.58314527)",TU000487
S5761,S5757,Saint-Jean le Sec,Mas de Magret,43.5708042575,3.8378316925,43.56732943,3.82812227,"LINESTRING (3.8378316925 43.5708042575, 3.82812227 43.56732943)",TU000488
S5765,S5750,Val des Garrigues,Jasses,43.5666827,3.82678261,43.570822125,3.82809595,"LINESTRING (3.82678261 43.5666827, 3.82809595 43.570822125)",TU000489
S5888,S5936,Oliviers,Coustaude,43.58916528,3.829044665,43.59175414,3.83522824,"LINESTRING (3.829044665 43.58916528, 3.83522824 43.59175414)",TU000490
S5936,S5887,Coustaude,La Fermaude,43.59175414,3.83522824,43.59028608,3.83802194,"LINESTRING (3.83522824 43.59175414, 3.83802194 43.59028608)",TU000491
S5177,S5182,Charles de Gaulle,Clinique du Parc,43.62817536375,3.8974032625,43.63541981,3.8910953,"LINESTRING (3.8974032625 43.62817536375, 3.8910953 43.63541981)",TU000492
S5182,S5199,Clinique du Parc,Place de la Liberté,43.63541981,3.8910953,43.632612645,3.895944925,"LINESTRING (3.8910953 43.63541981, 3.895944925 43.632612645)",TU000493
S5230,S5698,Beaulieu,La Bornière,43.56031264,3.72735771,43.5793925933333,3.75419244666667,"LINESTRING (3.72735771 43.56031264, 3.75419244666667 43.5793925933333)",TU000494
S5700,S5904,Lotissement Les Violettes,Jean Ferrat,43.587122635,3.76596978,43.58892288,3.76884689,"LINESTRING (3.76596978 43.587122635, 3.76884689 43.58892288)",TU000495
S5904,S5741,Jean Ferrat,Stade,43.58892288,3.76884689,43.6072961966667,3.78489724333333,"LINESTRING (3.76884689 43.58892288, 3.78489724333333 43.6072961966667)",TU000496
S5741,S5738,Stade,La Regnague,43.6072961966667,3.78489724333333,43.60891347,3.796553085,"LINESTRING (3.78489724333333 43.6072961966667, 3.796553085 43.60891347)",TU000497
S5738,S5957,La Regnague,Amandiers,43.60891347,3.796553085,43.60987583,3.801173795,"LINESTRING (3.796553085 43.60891347, 3.801173795 43.60987583)",TU000498
S5957,S5322,Amandiers,Route de Saint-Georges,43.60987583,3.801173795,43.61281323,3.80895096,"LINESTRING (3.801173795 43.60987583, 3.80895096 43.61281323)",TU000499
S5322,S5963,Route de Saint-Georges,Alouettes,43.61281323,3.80895096,43.613963025,3.811325225,"LINESTRING (3.80895096 43.61281323, 3.811325225 43.613963025)",TU000500
S5963,S5563,Alouettes,Mosson,43.613963025,3.811325225,43.616387998,3.819643266,"LINESTRING (3.811325225 43.613963025, 3.819643266 43.616387998)",TU000501
S5742,S5733,Zone Artisanale,Avenue Justin Bec,43.62929953,3.76913552,43.62561758,3.76885135,"LINESTRING (3.76913552 43.62929953, 3.76885135 43.62561758)",TU000502
S5733,S5739,Avenue Justin Bec,Le Réservoir,43.62561758,3.76885135,43.614794345,3.77629441,"LINESTRING (3.76885135 43.62561758, 3.77629441 43.614794345)",TU000503
S5739,S5736,Le Réservoir,Dame d'Orcas,43.614794345,3.77629441,43.615698175,3.779639325,"LINESTRING (3.77629441 43.614794345, 3.779639325 43.615698175)",TU000504
S5736,S5835,Dame d'Orcas,Les Alicantes,43.615698175,3.779639325,43.612991265,3.786109785,"LINESTRING (3.779639325 43.615698175, 3.786109785 43.612991265)",TU000505
S5835,S5741,Les Alicantes,Stade,43.612991265,3.786109785,43.6072961966667,3.78489724333333,"LINESTRING (3.786109785 43.612991265, 3.78489724333333 43.6072961966667)",TU000506
S5741,S5836,Stade,Les Jardins,43.6072961966667,3.78489724333333,43.60970849,3.78287171,"LINESTRING (3.78489724333333 43.6072961966667, 3.78287171 43.60970849)",TU000507
S5836,S5740,Les Jardins,Le Saint-Georges,43.60970849,3.78287171,43.61061524,3.78430506,"LINESTRING (3.78287171 43.60970849, 3.78430506 43.61061524)",TU000508
S5740,S5737,Le Saint-Georges,Gare,43.61061524,3.78430506,43.60905568,3.78865745,"LINESTRING (3.78430506 43.61061524, 3.78865745 43.60905568)",TU000509
S5737,S5738,Gare,La Regnague,43.60905568,3.78865745,43.60891347,3.796553085,"LINESTRING (3.78865745 43.60905568, 3.796553085 43.60891347)",TU000510
S5737,S5835,Gare,Les Alicantes,43.60905568,3.78865745,43.612991265,3.786109785,"LINESTRING (3.78865745 43.60905568, 3.786109785 43.612991265)",TU000511
S5698,S5767,La Bornière,Aires,43.5793925933333,3.75419244666667,43.572453605,3.77299024,"LINESTRING (3.75419244666667 43.5793925933333, 3.77299024 43.572453605)",TU000512
S5767,S5768,Aires,Barils,43.572453605,3.77299024,43.5717551,3.773467225,"LINESTRING (3.77299024 43.572453605, 3.773467225 43.5717551)",TU000513
S5768,S5773,Barils,Mairie,43.5717551,3.773467225,43.57084846,3.77371025,"LINESTRING (3.773467225 43.5717551, 3.77371025 43.57084846)",TU000514
S5773,S5770,Mairie,La Vialette,43.57084846,3.77371025,43.568806115,3.77418433,"LINESTRING (3.77371025 43.57084846, 3.77418433 43.568806115)",TU000515
S5770,S5265,La Vialette,Paix,43.568806115,3.77418433,43.555299935,3.778912335,"LINESTRING (3.77418433 43.568806115, 3.778912335 43.555299935)",TU000516
S5265,S5258,Paix,École La Gardiole,43.555299935,3.778912335,43.557252205,3.78249046,"LINESTRING (3.778912335 43.555299935, 3.78249046 43.557252205)",TU000517
S5258,S5266,École La Gardiole,Rouget de Lisle,43.557252205,3.78249046,43.55687504,3.78447711,"LINESTRING (3.78249046 43.557252205, 3.78447711 43.55687504)",TU000518
S5266,S5257,Rouget de Lisle,Albinoni,43.55687504,3.78447711,43.557895045,3.787178985,"LINESTRING (3.78447711 43.55687504, 3.787178985 43.557895045)",TU000519
S5257,S5856,Albinoni,Collège Ray Charles,43.557895045,3.787178985,43.55970126,3.790234695,"LINESTRING (3.787178985 43.557895045, 3.790234695 43.55970126)",TU000520
S5856,S5955,Collège Ray Charles,Stedo,43.55970126,3.790234695,43.560230845,3.79529764,"LINESTRING (3.790234695 43.55970126, 3.79529764 43.560230845)",TU000521
S5955,S5762,Stedo,Sigaliès,43.560230845,3.79529764,43.5710967,3.813001145,"LINESTRING (3.79529764 43.560230845, 3.813001145 43.5710967)",TU000522
S5762,S5759,Sigaliès,Saint-Hubéry,43.5710967,3.813001145,43.57382225,3.81976667,"LINESTRING (3.813001145 43.5710967, 3.81976667 43.57382225)",TU000523
S5759,S5758,Saint-Hubéry,Roudères,43.57382225,3.81976667,43.57514052,3.82555648,"LINESTRING (3.81976667 43.57382225, 3.82555648 43.57514052)",TU000524
S5758,S5905,Roudères,St Jean de Védas Centre - Ortet,43.57514052,3.82555648,43.57566707,3.830070865,"LINESTRING (3.82555648 43.57514052, 3.830070865 43.57566707)",TU000525
S5905,S5760,St Jean de Védas Centre - Ortet,Saint-Jean de Védas Centre,43.57566707,3.830070865,43.5748751566667,3.83045819333333,"LINESTRING (3.830070865 43.57566707, 3.83045819333333 43.5748751566667)",TU000526
S5760,S5758,Saint-Jean de Védas Centre,Roudères,43.5748751566667,3.83045819333333,43.57514052,3.82555648,"LINESTRING (3.83045819333333 43.5748751566667, 3.82555648 43.57514052)",TU000527
S5856,S5261,Collège Ray Charles,Les Cousses,43.55970126,3.790234695,43.5579814,3.7891156,"LINESTRING (3.790234695 43.55970126, 3.7891156 43.5579814)",TU000528
S5261,S5257,Les Cousses,Albinoni,43.5579814,3.7891156,43.557895045,3.787178985,"LINESTRING (3.7891156 43.5579814, 3.787178985 43.557895045)",TU000529
S5249,S5255,Maumarin,Sienne,43.661486145,3.943753385,43.66220298,3.940882005,"LINESTRING (3.943753385 43.661486145, 3.940882005 43.66220298)",TU000530
S5255,S5250,Sienne,Monteroni d'Arbia,43.66220298,3.940882005,43.660068145,3.936302165,"LINESTRING (3.940882005 43.66220298, 3.936302165 43.660068145)",TU000531
S5250,S5817,Monteroni d'Arbia,Sauvagine,43.660068145,3.936302165,43.66233833,3.93659489,"LINESTRING (3.936302165 43.660068145, 3.93659489 43.66233833)",TU000532
S5817,S5253,Sauvagine,Rocailles,43.66233833,3.93659489,43.656956445,3.93576919,"LINESTRING (3.93659489 43.66233833, 3.93576919 43.656956445)",TU000533
S5253,S5815,Rocailles,Combe Chaude,43.656956445,3.93576919,43.65394782,3.935257735,"LINESTRING (3.93576919 43.656956445, 3.935257735 43.65394782)",TU000534
S5815,S5953,Combe Chaude,Rolland Gamet,43.65394782,3.935257735,43.64905716,3.93282415,"LINESTRING (3.935257735 43.65394782, 3.93282415 43.64905716)",TU000535
S5953,S5818,Rolland Gamet,Via Domitia,43.64905716,3.93282415,43.6465206325,3.9301688725,"LINESTRING (3.93282415 43.64905716, 3.9301688725 43.6465206325)",TU000536
S5246,S5238,Jean Jaurès,Arbousiers,43.656960405,3.943093515,43.65365127,3.944659535,"LINESTRING (3.943093515 43.656960405, 3.944659535 43.65365127)",TU000537
S5238,S5240,Arbousiers,Baléares,43.65365127,3.944659535,43.65132732,3.9434488,"LINESTRING (3.944659535 43.65365127, 3.9434488 43.65132732)",TU000538
S5240,S5243,Baléares,Cimetière,43.65132732,3.9434488,43.65115707,3.940683005,"LINESTRING (3.9434488 43.65132732, 3.940683005 43.65115707)",TU000539
S5243,S5256,Cimetière,Substantion,43.65115707,3.940683005,43.649712835,3.94016576,"LINESTRING (3.940683005 43.65115707, 3.94016576 43.649712835)",TU000540
S5256,S5244,Substantion,Fernand Rouché,43.649712835,3.94016576,43.647424805,3.94138286,"LINESTRING (3.94016576 43.649712835, 3.94138286 43.647424805)",TU000541
S5244,S5242,Fernand Rouché,Chênes,43.647424805,3.94138286,43.645199405,3.94171027,"LINESTRING (3.94138286 43.647424805, 3.94171027 43.645199405)",TU000542
S5242,S5241,Chênes,Capri,43.645199405,3.94171027,43.64590966,3.93836906,"LINESTRING (3.94171027 43.645199405, 3.93836906 43.64590966)",TU000543
S5241,S5239,Capri,Arènes,43.64590966,3.93836906,43.6429169,3.93678719,"LINESTRING (3.93836906 43.64590966, 3.93678719 43.6429169)",TU000544
S5239,S5816,Arènes,Méditerranée,43.6429169,3.93678719,43.64524279,3.93482827,"LINESTRING (3.93678719 43.6429169, 3.93482827 43.64524279)",TU000545
S5816,S5953,Méditerranée,Rolland Gamet,43.64524279,3.93482827,43.64905716,3.93282415,"LINESTRING (3.93482827 43.64524279, 3.93282415 43.64905716)",TU000546
S5633,S5386,Sabines,Bagatelle,43.583822352,3.860158464,43.59509064,3.84418411,"LINESTRING (3.860158464 43.583822352, 3.84418411 43.59509064)",TU000547
S5386,S5931,Bagatelle,Cheng-Du,43.59509064,3.84418411,43.59306424,3.84380908,"LINESTRING (3.84418411 43.59509064, 3.84380908 43.59306424)",TU000548
S5931,S5932,Cheng-Du,XV de France,43.59306424,3.84380908,43.59152921,3.84494355,"LINESTRING (3.84380908 43.59306424, 3.84494355 43.59152921)",TU000549
S5932,S5679,XV de France,Yves du Manoir,43.59152921,3.84494355,43.59144234,3.8485898,"LINESTRING (3.84494355 43.59152921, 3.8485898 43.59144234)",TU000550
S5679,S5633,Yves du Manoir,Sabines,43.59144234,3.8485898,43.583822352,3.860158464,"LINESTRING (3.8485898 43.59144234, 3.860158464 43.583822352)",TU000551
S5264,S5260,Lou Paillas,Le Hameau,43.54557703,3.77495978,43.54689282,3.77402894,"LINESTRING (3.77495978 43.54557703, 3.77402894 43.54689282)",TU000552
S5260,S5262,Le Hameau,Les Écoles,43.54689282,3.77402894,43.54916869,3.77728084,"LINESTRING (3.77402894 43.54689282, 3.77728084 43.54916869)",TU000553
S5262,S5259,Les Écoles,Jeu de Ballon,43.54916869,3.77728084,43.55137054,3.7769779,"LINESTRING (3.77728084 43.54916869, 3.7769779 43.55137054)",TU000554
S5259,S5265,Jeu de Ballon,Paix,43.55137054,3.7769779,43.555299935,3.778912335,"LINESTRING (3.7769779 43.55137054, 3.778912335 43.555299935)",TU000555
S5262,S5264,Les Écoles,Lou Paillas,43.54916869,3.77728084,43.54557703,3.77495978,"LINESTRING (3.77728084 43.54916869, 3.77495978 43.54557703)",TU000556
S5782,S5796,Châtaigniers,Marbrerie,43.649267085,3.95652065,43.65386802,3.95575354,"LINESTRING (3.95652065 43.649267085, 3.95575354 43.65386802)",TU000557
S5796,S5795,Marbrerie,Bigos,43.65386802,3.95575354,43.65524448,3.9499668,"LINESTRING (3.95575354 43.65386802, 3.9499668 43.65524448)",TU000558
S5796,S5891,Marbrerie,Jean-Marcel Castet,43.65386802,3.95575354,43.6530550066667,3.96151477333333,"LINESTRING (3.95575354 43.65386802, 3.96151477333333 43.6530550066667)",TU000559
S5790,S5796,Parc Gouneaud,Marbrerie,43.65418065,3.963983985,43.65386802,3.95575354,"LINESTRING (3.963983985 43.65418065, 3.95575354 43.65386802)",TU000560
S5196,S5962,Notre-Dame de Sablassou,Verchant,43.6341134433333,3.92248383166667,43.623095675,3.918331315,"LINESTRING (3.92248383166667 43.6341134433333, 3.918331315 43.623095675)",TU000561
S5962,S5452,Verchant,Eurêka,43.623095675,3.918331315,43.61945437,3.91435734,"LINESTRING (3.918331315 43.623095675, 3.91435734 43.61945437)",TU000562
S5452,S5958,Eurêka,Alfred Nobel,43.61945437,3.91435734,43.61600677,3.91003657,"LINESTRING (3.91435734 43.61945437, 3.91003657 43.61600677)",TU000563
S5958,S5600,Alfred Nobel,Pinville,43.61600677,3.91003657,43.61397539,3.905371665,"LINESTRING (3.91003657 43.61600677, 3.905371665 43.61397539)",TU000564
S5600,S5587,Pinville,Paul Painlevé,43.61397539,3.905371665,43.610214075,3.899097745,"LINESTRING (3.905371665 43.61397539, 3.899097745 43.610214075)",TU000565
S5587,S5960,Paul Painlevé,Pont Juvénal,43.610214075,3.899097745,43.606236945,3.89810751,"LINESTRING (3.899097745 43.610214075, 3.89810751 43.606236945)",TU000566
S5355,S5357,Cirad de Baillarguet,Font de Salomé,43.68428167,3.87654496,43.67835467,3.87323873,"LINESTRING (3.87654496 43.68428167, 3.87323873 43.67835467)",TU000567
S5357,S5356,Font de Salomé,Distillerie,43.67835467,3.87323873,43.675120895,3.86733635,"LINESTRING (3.87323873 43.67835467, 3.86733635 43.675120895)",TU000568
S5356,S5870,Distillerie,Olympe,43.675120895,3.86733635,43.67674098,3.855067645,"LINESTRING (3.86733635 43.675120895, 3.855067645 43.67674098)",TU000569
S5870,S5952,Olympe,Dévézou,43.67674098,3.855067645,43.67399852,3.85798586,"LINESTRING (3.855067645 43.67674098, 3.85798586 43.67399852)",TU000570
S5952,S5363,Dévézou,Picadous,43.67399852,3.85798586,43.66962815,3.86190683,"LINESTRING (3.85798586 43.67399852, 3.86190683 43.66962815)",TU000571
S5363,S5360,Picadous,La Grand Font,43.66962815,3.86190683,43.66885951,3.860629235,"LINESTRING (3.86190683 43.66962815, 3.860629235 43.66885951)",TU000572
S5360,S5354,La Grand Font,Chemin Neuf,43.66885951,3.860629235,43.66721153,3.85859134,"LINESTRING (3.860629235 43.66885951, 3.85859134 43.66721153)",TU000573
S5354,S5358,Chemin Neuf,Font du Noyer,43.66721153,3.85859134,43.66592631,3.85247646,"LINESTRING (3.85859134 43.66721153, 3.85247646 43.66592631)",TU000574
S5358,S5365,Font du Noyer,Quatre Chemins,43.66592631,3.85247646,43.66505361,3.846087955,"LINESTRING (3.85247646 43.66592631, 3.846087955 43.66505361)",TU000575
S5365,S5359,Quatre Chemins,Fontaine des Chênes,43.66505361,3.846087955,43.66201615,3.84729548,"LINESTRING (3.846087955 43.66505361, 3.84729548 43.66201615)",TU000576
S5359,S5361,Fontaine des Chênes,La Lironde,43.66201615,3.84729548,43.660069515,3.84892802,"LINESTRING (3.84729548 43.66201615, 3.84892802 43.660069515)",TU000577
S5361,S5353,La Lironde,Chemin du Cambas,43.660069515,3.84892802,43.658690835,3.850445505,"LINESTRING (3.84892802 43.660069515, 3.850445505 43.658690835)",TU000578
S5353,S5362,Chemin du Cambas,Mas de Gué,43.658690835,3.850445505,43.65737859,3.851710835,"LINESTRING (3.850445505 43.658690835, 3.851710835 43.65737859)",TU000579
S5362,S5351,Mas de Gué,Aqueduc,43.65737859,3.851710835,43.654214135,3.856201835,"LINESTRING (3.851710835 43.65737859, 3.856201835 43.654214135)",TU000580
S5351,S5364,Aqueduc,Picheyrou,43.654214135,3.856201835,43.65311966,3.860196635,"LINESTRING (3.856201835 43.654214135, 3.860196635 43.65311966)",TU000581
S5364,S5366,Picheyrou,Rapatel,43.65311966,3.860196635,43.651550195,3.86439525,"LINESTRING (3.860196635 43.65311966, 3.86439525 43.651550195)",TU000582
S5366,S5673,Rapatel,Vincent Auriol,43.651550195,3.86439525,43.64776173,3.8640215,"LINESTRING (3.86439525 43.651550195, 3.8640215 43.64776173)",TU000583
S5611,S5943,Plan des 4 Seigneurs,Pic Saint-Loup,43.640827535,3.8578509,43.63915038,3.85340573,"LINESTRING (3.8578509 43.640827535, 3.85340573 43.63915038)",TU000584
S5943,S5571,Pic Saint-Loup,Occitanie,43.63915038,3.85340573,43.6346144,3.84841683166667,"LINESTRING (3.85340573 43.63915038, 3.84841683166667 43.6346144)",TU000585
S5356,S5363,Distillerie,Picadous,43.675120895,3.86733635,43.66962815,3.86190683,"LINESTRING (3.86733635 43.675120895, 3.86190683 43.66962815)",TU000586
S5374,S5943,Ambroise Paré,Pic Saint-Loup,43.63804826,3.84768255,43.63915038,3.85340573,"LINESTRING (3.84768255 43.63804826, 3.85340573 43.63915038)",TU000587
S5919,S5366,Vincent Auriol,Rapatel,43.64837411,3.86458262,43.651550195,3.86439525,"LINESTRING (3.86458262 43.64837411, 3.86439525 43.651550195)",TU000588
S5363,S5870,Picadous,Olympe,43.66962815,3.86190683,43.67674098,3.855067645,"LINESTRING (3.86190683 43.66962815, 3.855067645 43.67674098)",TU000589
S5870,S5967,Olympe,Dévézou,43.67674098,3.855067645,43.67402582,3.85796181,"LINESTRING (3.855067645 43.67674098, 3.85796181 43.67402582)",TU000590
S5967,S5356,Dévézou,Distillerie,43.67402582,3.85796181,43.675120895,3.86733635,"LINESTRING (3.85796181 43.67402582, 3.86733635 43.675120895)",TU000591
S5605,S5844,Place de France,Gare Montpellier Sud de France,43.603759528,3.915564274,43.59603179,3.92172579,"LINESTRING (3.915564274 43.603759528, 3.92172579 43.59603179)",TU000592
S5711,S5708,Mandarine,Frayssinet,43.694252755,3.862497125,43.69680567,3.862838015,"LINESTRING (3.862497125 43.694252755, 3.862838015 43.69680567)",TU000593
S5708,S5710,Frayssinet,Mairie,43.69680567,3.862838015,43.69727398,3.86437463,"LINESTRING (3.862838015 43.69680567, 3.86437463 43.69727398)",TU000594
S5710,S5707,Mairie,Ducque,43.69727398,3.86437463,43.697099585,3.869084705,"LINESTRING (3.86437463 43.69727398, 3.869084705 43.697099585)",TU000595
S5707,S5706,Ducque,Coste Rousse,43.697099585,3.869084705,43.694704655,3.870922295,"LINESTRING (3.869084705 43.697099585, 3.870922295 43.694704655)",TU000596
S5706,S5878,Coste Rousse,Gaspard Monge,43.694704655,3.870922295,43.69382819,3.872503255,"LINESTRING (3.870922295 43.694704655, 3.872503255 43.69382819)",TU000597
S5878,S5879,Gaspard Monge,Les Baronnes,43.69382819,3.872503255,43.691040365,3.87129455,"LINESTRING (3.872503255 43.69382819, 3.87129455 43.691040365)",TU000598
S5879,S5881,Les Baronnes,Olympe de Gouges,43.691040365,3.87129455,43.68959207,3.869768875,"LINESTRING (3.87129455 43.691040365, 3.869768875 43.68959207)",TU000599
S5881,S5877,Olympe de Gouges,Cigale,43.68959207,3.869768875,43.688137715,3.867716575,"LINESTRING (3.869768875 43.68959207, 3.867716575 43.688137715)",TU000600
S5877,S5880,Cigale,Nouau,43.688137715,3.867716575,43.686592285,3.865426565,"LINESTRING (3.867716575 43.688137715, 3.865426565 43.686592285)",TU000601
S5880,S5714,Nouau,Pont Vert,43.686592285,3.865426565,43.686394115,3.86386029,"LINESTRING (3.865426565 43.686592285, 3.86386029 43.686394115)",TU000602
S5714,S5713,Pont Vert,Pendances,43.686394115,3.86386029,43.68441524,3.863615305,"LINESTRING (3.86386029 43.686394115, 3.863615305 43.68441524)",TU000603
S5713,S5352,Pendances,Baillarguet,43.68441524,3.863615305,43.67752903,3.86710367,"LINESTRING (3.863615305 43.68441524, 3.86710367 43.67752903)",TU000604
S5352,S5356,Baillarguet,Distillerie,43.67752903,3.86710367,43.675120895,3.86733635,"LINESTRING (3.86710367 43.67752903, 3.86733635 43.675120895)",TU000605
S5363,S5916,Picadous,Roularel,43.66962815,3.86190683,43.662264495,3.862923615,"LINESTRING (3.86190683 43.66962815, 3.862923615 43.662264495)",TU000606
S5916,S5909,Roularel,Baumes,43.662264495,3.862923615,43.657431065,3.863654935,"LINESTRING (3.862923615 43.662264495, 3.863654935 43.657431065)",TU000607
S5909,S5910,Baumes,Moulin Boudet,43.657431065,3.863654935,43.65458441,3.864705515,"LINESTRING (3.863654935 43.657431065, 3.864705515 43.65458441)",TU000608
S5910,S5869,Moulin Boudet,Mende Agropolis,43.65458441,3.864705515,43.651857935,3.86583969,"LINESTRING (3.864705515 43.65458441, 3.86583969 43.651857935)",TU000609
S5869,S5673,Mende Agropolis,Vincent Auriol,43.651857935,3.86583969,43.64776173,3.8640215,"LINESTRING (3.86583969 43.651857935, 3.8640215 43.64776173)",TU000610
S5919,S5869,Vincent Auriol,Mende Agropolis,43.64837411,3.86458262,43.651857935,3.86583969,"LINESTRING (3.86458262 43.64837411, 3.86583969 43.651857935)",TU000611
S5808,S5907,Pèlerine,Mas Crespy,43.526440955,3.855013025,43.529937455,3.849262085,"LINESTRING (3.855013025 43.526440955, 3.849262085 43.529937455)",TU000612
S5907,S5893,Mas Crespy,Figuière,43.529937455,3.849262085,43.53477861,3.855951,"LINESTRING (3.849262085 43.529937455, 3.855951 43.53477861)",TU000613
S5798,S5894,Avenue de la Gare,Gare Villeneuve-lès-Maguelone,43.53697439,3.857374685,43.543940625,3.8503554,"LINESTRING (3.857374685 43.53697439, 3.8503554 43.543940625)",TU000614
S5811,S5907,Stade,Mas Crespy,43.53323033,3.85546508,43.529937455,3.849262085,"LINESTRING (3.85546508 43.53323033, 3.849262085 43.529937455)",TU000615
S5905,S5385,St Jean de Védas Centre - Ortet,Avenue de Toulouse,43.57566707,3.830070865,43.591585885,3.8579067,"LINESTRING (3.830070865 43.57566707, 3.8579067 43.591585885)",TU000616
S5385,S5391,Avenue de Toulouse,Berthelot,43.591585885,3.8579067,43.60124442,3.86942068,"LINESTRING (3.8579067 43.591585885, 3.86942068 43.60124442)",TU000617
S5391,S5629,Berthelot,Rondelet,43.60124442,3.86942068,43.6033504316667,3.875474865,"LINESTRING (3.86942068 43.60124442, 3.875474865 43.6033504316667)",TU000618
S5391,S5905,Berthelot,St Jean de Védas Centre - Ortet,43.60124442,3.86942068,43.57566707,3.830070865,"LINESTRING (3.86942068 43.60124442, 3.830070865 43.57566707)",TU000619
S5971,S5970,Port Marianne,Pablo Picasso,43.60149429,3.89939429,43.597811105,3.90356721,"LINESTRING (3.89939429 43.60149429, 3.90356721 43.597811105)",TU000620
S5970,S5326,Pablo Picasso,Boirargues,43.597811105,3.90356721,43.582516072,3.926062458,"LINESTRING (3.90356721 43.597811105, 3.926062458 43.582516072)",TU000621
S5326,S5685,Boirargues,EcoPôle,43.582516072,3.926062458,43.5781151725,3.9350316725,"LINESTRING (3.926062458 43.582516072, 3.9350316725 43.5781151725)",TU000622
S5685,S5687,EcoPôle,Parc Expo,43.5781151725,3.9350316725,43.57287936,3.94524544333333,"LINESTRING (3.9350316725 43.5781151725, 3.94524544333333 43.57287936)",TU000623
S5687,S5972,Parc Expo,Pérols Etang de l'Or,43.57287936,3.94524544333333,43.557858845,3.96370221,"LINESTRING (3.94524544333333 43.57287936, 3.96370221 43.557858845)",TU000624
S5685,S5331,EcoPôle,Cougourlude,43.5781151725,3.9350316725,43.5713968166667,3.91418072,"LINESTRING (3.9350316725 43.5781151725, 3.91418072 43.5713968166667)",TU000625
S5331,S5327,Cougourlude,Lattes Centre,43.5713968166667,3.91418072,43.5707753533333,3.90519991333333,"LINESTRING (3.91418072 43.5713968166667, 3.90519991333333 43.5707753533333)",TU000626
S5327,S5968,Lattes Centre,Cougourlude,43.5707753533333,3.90519991333333,43.57142435,3.9145524,"LINESTRING (3.90519991333333 43.5707753533333, 3.9145524 43.57142435)",TU000627
S5968,S5685,Cougourlude,EcoPôle,43.57142435,3.9145524,43.5781151725,3.9350316725,"LINESTRING (3.9145524 43.57142435, 3.9350316725 43.5781151725)",TU000628
